ID,CameraName,Owner,RegistrationType,ListedDate,Latitude,Longitude,ZipCode,Neighborhood,PoliceDistrict,CouncilDistrict,PolicePost,Location,2010 Census Neighborhoods,2010 Census Wards Precincts,Zip Codes
277,733 North Ave West - Etting/Whitelock,BPD - North Ave West,Business,10/22/2014 05:27:48 PM,39.310861,-76.640704,21217,Penn North,Western,7,733,POINT (39.310861 -76.640704),,,
71,70 Downtown - Saratoga/Lexington,BPD - Downtown,Business,10/22/2014 05:27:45 PM,39.291378,-76.60783,21202,Downtown,Central,11,111,POINT (39.291378 -76.60783),,,
376,1018 Tri-District - Monroe/Ramsay,BPD - Tri-District,Business,10/22/2014 05:27:49 PM,39.283147,-76.646666,21223,Carrollton Ridge,Southern,9,934,POINT (39.283147 -76.646666),,,
142,331 Cherry Hill - Rear of 3411 Round Rd,BPD - Cherry Hill,Business,10/22/2014 05:27:46 PM,39.244008,-76.624244,21225,Cherry Hill,Southern,10,922,POINT (39.244008 -76.624244),,,
104,221 Broadway - Fleet/Broadway (Eastside),BPD - Broadway,Business,10/22/2014 05:27:46 PM,39.284564,-76.59326,21231,Fells Point,Southeastern,1,213,POINT (39.284564 -76.59326),,,
500,2013 McCulloh - 1135 Tiffany Ct,BPD - McCulloh,Business,10/22/2014 05:27:50 PM,39.302018,-76.625957,21201,Upton,Central,11,123,POINT (39.302018 -76.625957),,,
357,932 Southwest District - Riggls/Braddish,BPD - Southwest District,Business,10/22/2014 05:27:49 PM,39.300826,-76.664776,21216,Winchester,Southwestern,9,814,POINT (39.300826 -76.664776),,,
343,918 Southwest District - Poplar Grove/Riggls,BPD - Southwest District,Business,10/22/2014 05:27:49 PM,39.300189,-76.66513,21216,Mosher,Western,9,721,POINT (39.300189 -76.66513),,,
257,713 North Ave West - Pulaski/Herbert,BPD - North Ave West,Business,10/22/2014 05:27:48 PM,39.310219,-76.651376,21217,Mondawmin,Western,7,731,POINT (39.310219 -76.651376),,,
540,2128 Gilmore - 1649 Lorman Ct,BPD - Gilmore,Business,10/22/2014 05:27:51 PM,39.303959,-76.643874,21217,Sandtown-Winchester,Western,7,743,POINT (39.303959 -76.643874),,,
489,2002 McCulloh - 569 Dolphin St,BPD - McCulloh,Business,10/22/2014 05:27:50 PM,39.299474,-76.628247,21201,Upton,Central,11,123,POINT (39.299474 -76.628247),,,
241,626 Monument - Ashland/Montford,BPD - Monument,Business,10/22/2014 05:27:47 PM,39.300885,-76.584317,21205,Milton-Montford,Eastern,13,323,POINT (39.300885 -76.584317),,,
2,1 Downtown - Eutaw/Lexington Market,BPD - Downtown,Business,10/22/2014 05:27:45 PM,39.290996,-76.621074,21201,Downtown,Central,11,111,POINT (39.290996 -76.621074),,,
579,2306 Perkins - 231 Mason Ct,BPD - Perkins,Business,10/22/2014 05:27:51 PM,39.288642,-76.595773,21231,Perkins Homes,Southeastern,12,211,POINT (39.288642 -76.595773),,,
91,208 Broadway - Lombard/Durham,BPD - Broadway,Business,10/22/2014 05:27:46 PM,39.29052,-76.591047,21231,Washington Hill,Southeastern,13,212,POINT (39.29052 -76.591047),,,
502,2015 McCulloh - 441 Cummings Ct,BPD - McCulloh,Business,10/22/2014 05:27:50 PM,39.300996,-76.62538,21201,Upton,Central,11,123,POINT (39.300996 -76.62538),,,
363,1005 Tri-District - Parrish/Ramsy,BPD - Tri-District,Business,10/22/2014 05:27:49 PM,39.283308,-76.641401,21223,New Southwest/Mount Clare,Southern,9,935,POINT (39.283308 -76.641401),,,
422,1303 Harford Rd - Harford/Darley,BPD - Harford Rd,Business,10/22/2014 05:27:49 PM,39.315068,-76.597805,21218,East Baltimore Midway,Eastern,12,342,POINT (39.315068 -76.597805),,,
176,501 Greenmount - Guilford/28th,BPD - Greenmount,Business,10/22/2014 05:27:47 PM,39.32208,-76.613155,21218,Charles Village,Northern,14,512,POINT (39.32208 -76.613155),,,
546,2201 Latrobe - 800 Abbott Ct,BPD - Latrobe,Business,10/22/2014 05:27:51 PM,39.301253,-76.606166,21202,Oldtown,Eastern,12,312,POINT (39.301253 -76.606166),,,
607,2413 PVG - NE Elderly Building,BPD - PVG,Business,10/22/2014 05:27:51 PM,39.293473,-76.600139,21202,Pleasant View Gardens,Southeastern,12,211,POINT (39.293473 -76.600139),,,
119,308 Cherry Hill - Behind 1201 Slater Rd,BPD - Cherry Hill,Business,10/22/2014 05:27:46 PM,39.248756,-76.6322,21225,Cherry Hill,Southern,10,922,POINT (39.248756 -76.6322),,,
224,609 Monument - Monument/Milton,BPD - Monument,Business,10/22/2014 05:27:47 PM,39.298861,-76.582319,21205,Milton-Montford,Eastern,13,323,POINT (39.298861 -76.582319),,,
285,801 Park Heights - Reisterstown/Keyworth,BPD - Park Heights,Business,10/22/2014 05:27:48 PM,39.33267,-76.663122,21215,Towanda-Grantley,Northwestern,6,613,POINT (39.33267 -76.663122),,,
317,833 Park Heights - Park Heights/Trainor,BPD - Park Heights,Business,10/22/2014 05:27:48 PM,39.354997,-76.687574,21215,Glen,Northwestern,5,632,POINT (39.354997 -76.687574),,,
7,6 Downtown - Eutaw/Camden,BPD - Downtown,Business,10/22/2014 05:27:45 PM,39.285245,-76.620675,21201,Downtown West,Central,11,113,POINT (39.285245 -76.620675),,,
467,1942 Northeast Market - NE Market North,BPD - Northeast Market,Business,10/22/2014 05:27:50 PM,39.298141,-76.587517,21205,CARE,Eastern,13,321,POINT (39.298141 -76.587517),,,
124,313 Cherry Hill - Spelman/Woodview,BPD - Cherry Hill,Business,10/22/2014 05:27:46 PM,39.248579,-76.629266,21225,Cherry Hill,Southern,10,922,POINT (39.248579 -76.629266),,,
255,711 North Ave West - Pulaski/Westwood,BPD - North Ave West,Business,10/22/2014 05:27:48 PM,39.308694,-76.651259,21217,Easterwood,Western,7,741,POINT (39.308694 -76.651259),,,
391,1102 Pennsylvania Ave - Carey/Baker,BPD - Pennsylvania Ave,Business,10/22/2014 05:27:49 PM,39.307995,-76.640251,21217,Sandtown-Winchester,Western,7,742,POINT (39.307995 -76.640251),,,
456,1911 Inner Harbor - Pier 5/Lighthouse,BPD - Inner Harbor,Business,10/22/2014 05:27:50 PM,39.283757,-76.606008,,Inner Harbor,Central,11,112,POINT (39.283757 -76.606008),,,
533,2121 Gilmore - 1428 Mountmor Ct,BPD - Gilmore,Business,10/22/2014 05:27:51 PM,39.304809,-76.644511,21217,Sandtown-Winchester,Western,7,743,POINT (39.304809 -76.644511),,,
208,533 Greenmount - Greenmount/Eager,BPD - Greenmount,Business,10/22/2014 05:27:47 PM,39.301361,-76.607269,21202,Johnston Square,Eastern,12,311,POINT (39.301361 -76.607269),,,
623,2507 Dept of Corrections - JFX South (Fixed),BPD - Dept of Corrections,Business,10/22/2014 05:27:52 PM,39.300442,-76.611061,21202,Penn-Fallsway,Eastern,12,312,POINT (39.300442 -76.611061),,,
12,11 Downtown - Greene/Lexington,BPD - Downtown,Business,10/22/2014 05:27:45 PM,39.291377,-76.623837,21201,University Of Maryland,Central,11,121,POINT (39.291377 -76.623837),,,
397,1108 Pennsylvania Ave - Robert/Division,BPD - Pennsylvania Ave,Business,10/22/2014 05:27:49 PM,39.305112,-76.635566,21217,Upton,Central,11,123,POINT (39.305112 -76.635566),,,
396,1107 Pennsylvania Ave - Division/Presstman,BPD - Pennsylvania Ave,Business,10/22/2014 05:27:49 PM,39.3062,-76.637229,21217,Upton,Central,11,123,POINT (39.3062 -76.637229),,,
58,57 Downtown - Calvert/Fayette,BPD - Downtown,Business,10/22/2014 05:27:45 PM,39.290387,-76.612448,21202,Downtown,Central,11,111,POINT (39.290387 -76.612448),,,
556,2211 Latrobe - 814 Abbott Ct,BPD - Latrobe,Business,10/22/2014 05:27:51 PM,39.301308,-76.604304,21202,Oldtown,Eastern,12,312,POINT (39.301308 -76.604304),,,
574,2301 Perkins - 200 Sprint Ct,BPD - Perkins,Business,10/22/2014 05:27:51 PM,39.288974,-76.598314,21231,Perkins Homes,Southeastern,12,211,POINT (39.288974 -76.598314),,,
146,335 Cherry Hill - 3430 Spelman,BPD - Cherry Hill,Business,10/22/2014 05:27:46 PM,39.242839,-76.625678,21225,Cherry Hill,Southern,10,922,POINT (39.242839 -76.625678),,,
522,2110 Gilmore - 1606 Vincent Ct,BPD - Gilmore,Business,10/22/2014 05:27:51 PM,39.307451,-76.644449,21217,Sandtown-Winchester,Western,7,742,POINT (39.307451 -76.644449),,,
493,2006 McCulloh - 503 Dolphin St,BPD - McCulloh,Business,10/22/2014 05:27:50 PM,39.300441,-76.627711,21201,Upton,Central,11,123,POINT (39.300441 -76.627711),,,
350,925 Southwest District - Edmondson/Warwick,BPD - Southwest District,Business,10/22/2014 05:27:49 PM,39.294821,-76.656215,21223,Rosemont Homeowners/Tenants,Western,9,721,POINT (39.294821 -76.656215),,,
561,2216 Latrobe - 943 Wilmot Ct,BPD - Latrobe,Business,10/22/2014 05:27:51 PM,39.299207,-76.603901,21202,Oldtown,Eastern,12,312,POINT (39.299207 -76.603901),,,
157,346 Cherry Hill - Carver/Bridgeview,BPD - Cherry Hill,Business,10/22/2014 05:27:46 PM,39.246813,-76.6254,21225,Cherry Hill,Southern,10,922,POINT (39.246813 -76.6254),,,
180,505 Greenmount - Barclay/Whitridge,BPD - Greenmount,Business,10/22/2014 05:27:47 PM,39.321523,-76.611159,21218,Harwood,Northern,12,513,POINT (39.321523 -76.611159),,,
417,1209 North Ave East - North/Port,BPD - North Ave East,Business,10/22/2014 05:27:49 PM,39.312303,-76.584864,21213,Broadway East,Eastern,12,331,POINT (39.312303 -76.584864),,,
191,516 Greenmount - Greenmount/22nd St,BPD - Greenmount,Business,10/22/2014 05:27:47 PM,39.314507,-76.609556,21218,Barclay,Eastern,12,341,POINT (39.314507 -76.609556),,,
44,43 Downtown - Paca/Lexington,BPD - Downtown,Business,10/22/2014 05:27:45 PM,39.291428,-76.622441,21201,Downtown,Central,11,111,POINT (39.291428 -76.622441),,,
431,1312 Harford Rd - Harford/Fenwick,BPD - Harford Rd,Business,10/22/2014 05:27:50 PM,39.322586,-76.59079,21218,Coldstream Homestead Montebello,Northeastern,14,411,POINT (39.322586 -76.59079),,,
26,25 Downtown - Park/Fayette,BPD - Downtown,Business,10/22/2014 05:27:45 PM,39.290501,-76.617985,21201,Downtown,Central,11,111,POINT (39.290501 -76.617985),,,
297,813 Park Heights - Pimlico/Sumter,BPD - Park Heights,Business,10/22/2014 05:27:48 PM,39.342397,-76.666714,21215,Parklane,Northern,6,532,POINT (39.342397 -76.666714),,,
310,826 Park Heights - Park Heights/Clarks,BPD - Park Heights,Business,10/22/2014 05:27:48 PM,39.362362,-76.699659,21215,Cross Country,Northwestern,5,632,POINT (39.362362 -76.699659),,,
330,905 Southwest District - North/Dukeland,BPD - Southwest District,Business,10/22/2014 05:27:48 PM,39.309212,-76.664032,21216,Northwest Community Action,Southwestern,7,811,POINT (39.309212 -76.664032),,,
589,2316 Perkins - 330 Ballou Ct,BPD - Perkins,Business,10/22/2014 05:27:51 PM,39.286883,-76.597371,21231,Perkins Homes,Southeastern,12,211,POINT (39.286883 -76.597371),,,
452,1907 Inner Harbor - Light Street Food Hall,BPD - Inner Harbor,Business,10/22/2014 05:27:50 PM,39.285391,-76.611909,21202,Inner Harbor,Central,11,112,POINT (39.285391 -76.611909),,,
39,38 Downtown - Eutaw/George,BPD - Downtown,Business,10/22/2014 05:27:45 PM,39.29579,-76.621317,21201,Mount Vernon,Central,11,142,POINT (39.29579 -76.621317),,,
27,26 Downtown - Clay/Liberty,BPD - Downtown,Business,10/22/2014 05:27:45 PM,39.291982,-76.617326,21201,Downtown,Central,11,111,POINT (39.291982 -76.617326),,,
265,721 North Ave West - North/Monroe,BPD - North Ave West,Business,10/22/2014 05:27:48 PM,39.309813,-76.64818,21217,Easterwood,Western,7,731,POINT (39.309813 -76.64818),,,
401,1112 Pennsylvania Ave - Pennsylvania/Wilson,BPD - Pennsylvania Ave,Business,10/22/2014 05:27:49 PM,39.303868,-76.633558,21217,Upton,Central,11,123,POINT (39.303868 -76.633558),,,
54,53 Downtown - Charles/Baltimore,BPD - Downtown,Business,10/22/2014 05:27:45 PM,39.289526,-76.615144,21201,Downtown,Central,11,111,POINT (39.289526 -76.615144),,,
16,15 Downtown - Howard/Camden,BPD - Downtown,Business,10/22/2014 05:27:45 PM,39.285302,-76.619283,21201,Downtown West,Central,11,113,POINT (39.285302 -76.619283),,,
595,2401 PVG - 231 Orleans St,BPD - PVG,Business,10/22/2014 05:27:51 PM,39.294579,-76.604043,21202,Pleasant View Gardens,Southeastern,12,211,POINT (39.294579 -76.604043),,,
190,515 Greenmount - Boone/23rd St,BPD - Greenmount,Business,10/22/2014 05:27:47 PM,39.31544,-76.608204,21218,East Baltimore Midway,Eastern,12,342,POINT (39.31544 -76.608204),,,
383,1025 Tri-District - Ashton/Pulaski,BPD - Tri-District,Business,10/22/2014 05:27:49 PM,39.282387,-76.649772,21223,Carrollton Ridge,Southwestern,9,841,POINT (39.282387 -76.649772),,,
526,2114 Gilmore - 1605 Spray Ct,BPD - Gilmore,Business,10/22/2014 05:27:51 PM,39.305786,-76.644515,21217,Sandtown-Winchester,Western,7,742,POINT (39.305786 -76.644515),,,
114,303 Cherry Hill - Berea/Slater,BPD - Cherry Hill,Business,10/22/2014 05:27:46 PM,39.250116,-76.63301,21225,Cherry Hill,Southern,10,922,POINT (39.250116 -76.63301),,,
612,2418 PVG - Youth Center Fayette St,BPD - PVG,Business,10/22/2014 05:27:51 PM,39.291817,-76.602983,21202,Pleasant View Gardens,Southeastern,12,211,POINT (39.291817 -76.602983),,,
129,318 Cherry Hill - 2822 Round Rd,BPD - Cherry Hill,Business,10/22/2014 05:27:46 PM,39.246384,-76.627666,21225,Cherry Hill,Southern,10,922,POINT (39.246384 -76.627666),,,
354,929 Southwest District - Edmondson/Allendale,BPD - Southwest District,Business,10/22/2014 05:27:49 PM,39.294062,-76.678286,21229,Edgewood,Southwestern,8,844,POINT (39.294062 -76.678286),,,
368,1010 Tri-District - Mount/Ramsay,BPD - Tri-District,Business,10/22/2014 05:27:49 PM,39.283259,-76.643511,21223,New Southwest/Mount Clare,Southern,9,935,POINT (39.283259 -76.643511),,,
202,527 Greenmount - Lafayette/Guilford,BPD - Greenmount,Business,10/22/2014 05:27:47 PM,39.310091,-76.61238,21202,Greenmount West,Eastern,12,311,POINT (39.310091 -76.61238),,,
565,2220 Latrobe - 1034 McAleer Ct,BPD - Latrobe,Business,10/22/2014 05:27:51 PM,39.299869,-76.603118,21202,Oldtown,Eastern,12,312,POINT (39.299869 -76.603118),,,
480,1981 Hollins Market - Hollins-NW Corner,BPD - Hollins Market,Business,10/22/2014 05:27:50 PM,39.287529,-76.635958,21223,Hollins Market,Southern,9,931,POINT (39.287529 -76.635958),,,
161,350 Cherry Hill - 2615 Carver Rd,BPD - Cherry Hill,Business,10/22/2014 05:27:47 PM,39.24845,-76.625322,21225,Cherry Hill,Southern,10,922,POINT (39.24845 -76.625322),,,
583,2310 Perkins - 270 Herring Ct,BPD - Perkins,Business,10/22/2014 05:27:51 PM,39.288037,-76.595338,21231,Perkins Homes,Southeastern,12,211,POINT (39.288037 -76.595338),,,
195,520 Greenmount - Boone/21st St,BPD - Greenmount,Business,10/22/2014 05:27:47 PM,39.31354,-76.608454,21218,East Baltimore Midway,Eastern,12,342,POINT (39.31354 -76.608454),,,
22,21 Downtown - Howard/Lexington,BPD - Downtown,Business,10/22/2014 05:27:45 PM,39.291602,-76.619664,21201,Downtown,Central,11,111,POINT (39.291602 -76.619664),,,
436,1403 Belair Rd - Belair/Lyndale,BPD - Belair Rd,Business,10/22/2014 05:27:50 PM,39.315646,-76.579763,21213,Four By Four,Northeastern,13,434,POINT (39.315646 -76.579763),,,
48,47 Downtown - Eutaw/Druid Hill,BPD - Downtown,Business,10/22/2014 05:27:45 PM,39.296696,-76.62127,21201,Mount Vernon,Central,11,142,POINT (39.296696 -76.62127),,,
96,213 Broadway - Gough/Broadway,BPD - Broadway,Business,10/22/2014 05:27:46 PM,39.287623,-76.593704,21231,Fells Point,Southeastern,12,213,POINT (39.287623 -76.593704),,,
633,2607 Midtown - Charles/Biddle,BPD - Midtown,Business,10/22/2014 05:27:52 PM,39.303319,-76.615909,21201,Mid-Town Belvedere,Central,12,141,POINT (39.303319 -76.615909),,,
293,809 Park Heights - Belvedere/Litchfield,BPD - Park Heights,Business,10/22/2014 05:27:48 PM,39.346305,-76.680281,21215,Arlington,Northwestern,5,633,POINT (39.346305 -76.680281),,,
430,1311 Harford Rd - Harford/Tivoly,BPD - Harford Rd,Business,10/22/2014 05:27:50 PM,39.32213,-76.591146,21218,Coldstream Homestead Montebello,Northeastern,14,411,POINT (39.32213 -76.591146),,,
335,910 Southwest District - Baker/Dukeland,BPD - Southwest District,Business,10/22/2014 05:27:49 PM,39.306043,-76.663825,21216,Northwest Community Action,Southwestern,7,813,POINT (39.306043 -76.663825),,,
156,345 Cherry Hill - Carver Rd front of school,BPD - Cherry Hill,Business,10/22/2014 05:27:46 PM,39.246366,-76.624683,21225,Cherry Hill,Southern,10,922,POINT (39.246366 -76.624683),,,
235,620 Monument - Monument/Decker,BPD - Monument,Business,10/22/2014 05:27:47 PM,39.299093,-76.574417,21205,Ellwood Park/Monument,Southeastern,13,224,POINT (39.299093 -76.574417),,,
298,814 Park Heights - Pimlico/Cold Spring,BPD - Park Heights,Business,10/22/2014 05:27:48 PM,39.3402,-76.665106,21215,Central Park Heights,Northern,6,533,POINT (39.3402 -76.665106),,,
466,1941 Northeast Market - NE Market Food Ct,BPD - Northeast Market,Business,10/22/2014 05:27:50 PM,39.298141,-76.587517,21205,CARE,Eastern,13,321,POINT (39.298141 -76.587517),,,
59,58 Downtown - Calvert/Redwood,BPD - Downtown,Business,10/22/2014 05:27:45 PM,39.288933,-76.612025,21202,Downtown,Central,11,111,POINT (39.288933 -76.612025),,,
326,901 Southwest District - North/Bloomingdale,BPD - Southwest District,Business,10/22/2014 05:27:48 PM,39.308965,-76.67114,21216,Walbrook,Southwestern,7,811,POINT (39.308965 -76.67114),,,
80,79 Downtown - Fayette/Charles,BPD - Downtown,Business,10/22/2014 05:27:45 PM,39.290628,-76.614485,21202,Downtown,Central,11,111,POINT (39.290628 -76.614485),,,
269,725 North Ave West - Fulton/Walbrook,BPD - North Ave West,Business,10/22/2014 05:27:48 PM,39.310848,-76.646633,21217,Mondawmin,Western,7,731,POINT (39.310848 -76.646633),,,
31,30 Downtown - Franklin/Cathedral,BPD - Downtown,Business,10/22/2014 05:27:45 PM,39.295048,-76.616872,21201,Downtown,Central,11,111,POINT (39.295048 -76.616872),,,
223,608 Monument - Madison/Port,BPD - Monument,Business,10/22/2014 05:27:47 PM,39.299893,-76.583081,21205,Milton-Montford,Eastern,13,323,POINT (39.299893 -76.583081),,,
496,2009 McCulloh - 556 Preston St,BPD - McCulloh,Business,10/22/2014 05:27:50 PM,39.298862,-76.626914,21201,Upton,Central,11,123,POINT (39.298862 -76.626914),,,
514,2102 Gilmore - 1638 Bruce Ct,BPD - Gilmore,Business,10/22/2014 05:27:50 PM,39.307276,-76.645597,21217,Sandtown-Winchester,Western,7,742,POINT (39.307276 -76.645597),,,
168,357 Cherry Hill - 2605 Spelman Rd Playground,BPD - Cherry Hill,Business,10/22/2014 05:27:47 PM,39.248041,-76.629274,21225,Cherry Hill,Southern,10,922,POINT (39.248041 -76.629274),,,
185,510 Greenmount - Boone/24th,BPD - Greenmount,Business,10/22/2014 05:27:47 PM,39.316588,-76.608768,21218,East Baltimore Midway,Eastern,12,342,POINT (39.316588 -76.608768),,,
617,2501 Dept of Corrections - Greenmount/Madison,BPD - Dept of Corrections,Business,10/22/2014 05:27:52 PM,39.30004,-76.608038,21202,Penn-Fallsway,Eastern,12,312,POINT (39.30004 -76.608038),,,
460,1920 Federal Reserve - Charles/Conway,BPD - Federal Reserve,Business,10/22/2014 05:27:50 PM,39.284299,-76.614453,21201,Otterbein,Central,11,113,POINT (39.284299 -76.614453),,,
331,906 Southwest District - North/Braddish,BPD - Southwest District,Business,10/22/2014 05:27:49 PM,39.309311,-76.661155,21216,Coppin Heights/Ash-Co-East,Western,7,731,POINT (39.309311 -76.661155),,,
387,1029 Tri-District - Lombard/Carrollton,BPD - Tri-District,Business,10/22/2014 05:27:49 PM,39.286545,-76.635975,21223,Hollins Market,Southern,9,931,POINT (39.286545 -76.635975),,,
218,603 Monument - Madison/Mederia,BPD - Monument,Business,10/22/2014 05:27:47 PM,39.298691,-76.586667,21205,Middle East,Eastern,13,321,POINT (39.298691 -76.586667),,,
261,717 North Ave West - Payson/Walbrook,BPD - North Ave West,Business,10/22/2014 05:27:48 PM,39.310831,-76.649988,21217,Mondawmin,Western,7,731,POINT (39.310831 -76.649988),,,
506,2019 McCulloh - 1134 Stoddard Ct,BPD - McCulloh,Business,10/22/2014 05:27:50 PM,39.30111,-76.627158,21201,Upton,Central,11,123,POINT (39.30111 -76.627158),,,
109,226 Broadway - Broadway/Aliceanna (West),BPD - Broadway,Business,10/22/2014 05:27:46 PM,39.283388,-76.59442,21231,Fells Point,Southeastern,1,213,POINT (39.283388 -76.59442),,,
246,702 North Ave West - Thomas/Westwood,BPD - North Ave West,Business,10/22/2014 05:27:47 PM,39.308432,-76.658115,21216,Coppin Heights/Ash-Co-East,Western,7,723,POINT (39.308432 -76.658115),,,
125,314 Cherry Hill - Woodview/Round,BPD - Cherry Hill,Business,10/22/2014 05:27:46 PM,39.248612,-76.628517,21225,Cherry Hill,Southern,10,922,POINT (39.248612 -76.628517),,,
536,2124 Gilmore - 1639 Booker Ct,BPD - Gilmore,Business,10/22/2014 05:27:51 PM,39.304473,-76.644048,21217,Sandtown-Winchester,Western,7,743,POINT (39.304473 -76.644048),,,
359,1001 Tri-District - Pratt/Stricker,BPD - Tri-District,Business,10/22/2014 05:27:49 PM,39.285454,-76.640803,21223,Union Square,Southern,9,933,POINT (39.285454 -76.640803),,,
599,2405 PVG - 1008 New Hope Cir,BPD - PVG,Business,10/22/2014 05:27:51 PM,39.293912,-76.603234,21202,Pleasant View Gardens,Southeastern,12,211,POINT (39.293912 -76.603234),,,
87,204 Broadway - Baltimore/Ann,BPD - Broadway,Business,10/22/2014 05:27:46 PM,39.291616,-76.591777,21231,Washington Hill,Southeastern,13,212,POINT (39.291616 -76.591777),,,
364,1006 Tri-District - McHenry/Gilmor,BPD - Tri-District,Business,10/22/2014 05:27:49 PM,39.2844,-76.642114,21223,New Southwest/Mount Clare,Southern,9,935,POINT (39.2844 -76.642114),,,
501,2014 McCulloh - 1101 Tiffany Ct,BPD - McCulloh,Business,10/22/2014 05:27:50 PM,39.301603,-76.625438,21201,Upton,Central,11,123,POINT (39.301603 -76.625438),,,
629,2603 Midtown - Charles/Read,BPD - Midtown,Business,10/22/2014 05:27:52 PM,39.299589,-76.615747,21201,Mount Vernon,Central,12,142,POINT (39.299589 -76.615747),,,
151,340 Cherry Hill - Seagull Ave behind UMBC,BPD - Cherry Hill,Business,10/22/2014 05:27:46 PM,39.242915,-76.622295,21225,Cherry Hill,Southern,10,922,POINT (39.242915 -76.622295),,,
410,1202 North Ave East - North/Harford,BPD - North Ave East,Business,10/22/2014 05:27:49 PM,39.311424,-76.600006,21213,Oliver,Eastern,12,343,POINT (39.311424 -76.600006),,,
207,532 Greenmount - Chase/Greenmount,BPD - Greenmount,Business,10/22/2014 05:27:47 PM,39.302734,-76.607642,21202,Johnston Square,Eastern,12,311,POINT (39.302734 -76.607642),,,
289,805 Park Heights - Boarman/Willowdale,BPD - Park Heights,Business,10/22/2014 05:27:48 PM,39.337273,-76.669476,21215,Towanda-Grantley,Northwestern,6,613,POINT (39.337273 -76.669476),,,
63,62 Downtown - SouthWater,BPD - Downtown,Business,10/22/2014 05:27:45 PM,39.288566,-76.610961,21202,Downtown,Central,11,111,POINT (39.288566 -76.610961),,,
228,613 Monument - Monument/Lakewood,BPD - Monument,Business,10/22/2014 05:27:47 PM,39.298966,-76.579493,21205,Madison-Eastend,Eastern,13,323,POINT (39.298966 -76.579493),,,
302,818 Park Heights - Winner/Avondale,BPD - Park Heights,Business,10/22/2014 05:27:48 PM,39.352873,-76.677682,21215,Pimlico Good Neighbors,Northwestern,5,633,POINT (39.352873 -76.677682),,,
472,1961 Avenue Market - Avenue Market Front,BPD - Avenue Market,Business,10/22/2014 05:27:50 PM,39.303537,-76.635647,21217,Upton,Central,11,123,POINT (39.303537 -76.635647),,,
136,325 Cherry Hill - Rear of 2917 Denham,BPD - Cherry Hill,Business,10/22/2014 05:27:46 PM,39.244194,-76.627525,21225,Cherry Hill,Southern,10,922,POINT (39.244194 -76.627525),,,
409,1201 North Ave East - North/Aisquith,BPD - North Ave East,Business,10/22/2014 05:27:49 PM,39.311186,-76.602506,21202,Oliver,Eastern,12,343,POINT (39.311186 -76.602506),,,
92,209 Broadway - Lombard/Chapel,BPD - Broadway,Business,10/22/2014 05:27:46 PM,39.290555,-76.589749,21231,Washington Hill,Southeastern,13,212,POINT (39.290555 -76.589749),,,
137,326 Cherry Hill - Side of 2901 Denham,BPD - Cherry Hill,Business,10/22/2014 05:27:46 PM,39.244338,-76.626671,21225,Cherry Hill,Southern,10,922,POINT (39.244338 -76.626671),,,
425,1306 Harford Rd - Harford/Harbor City School,BPD - Harford Rd,Business,10/22/2014 05:27:50 PM,39.31846,-76.594697,21218,Coldstream Homestead Montebello,Northeastern,14,411,POINT (39.31846 -76.594697),,,
120,309 Cherry Hill - Fisk/Slater,BPD - Cherry Hill,Business,10/22/2014 05:27:46 PM,39.249011,-76.631997,21225,Cherry Hill,Southern,10,922,POINT (39.249011 -76.631997),,,
251,707 North Ave West - Bentalou/Westwood,BPD - North Ave West,Business,10/22/2014 05:27:47 PM,39.308598,-76.654071,21216,Coppin Heights/Ash-Co-East,Western,7,723,POINT (39.308598 -76.654071),,,
443,1410 Belair Rd - Belair/Sheldon,BPD - Belair Rd,Business,10/22/2014 05:27:50 PM,39.328074,-76.565014,21206,Belair-Edison,Northeastern,2,442,POINT (39.328074 -76.565014),,,
3,2 Downtown - Eutaw/Fayette,BPD - Downtown,Business,10/22/2014 05:27:45 PM,39.290488,-76.623665,21201,Downtown,Central,11,111,POINT (39.290488 -76.623665),,,
273,729 North Ave West - Cumberland/Calhoun,BPD - North Ave West,Business,10/22/2014 05:27:48 PM,39.308031,-76.643489,21217,Sandtown-Winchester,Western,7,742,POINT (39.308031 -76.643489),,,
529,2117 Gilmore - 1519 Presser Ct,BPD - Gilmore,Business,10/22/2014 05:27:51 PM,39.305726,-76.64356,21217,Sandtown-Winchester,Western,7,742,POINT (39.305726 -76.64356),,,
550,2205 Latrobe - 834 McAleer Ct,BPD - Latrobe,Business,10/22/2014 05:27:51 PM,39.300312,-76.605297,21202,Oldtown,Eastern,12,312,POINT (39.300312 -76.605297),,,
321,837 Park Heights - Park Heights/ S Bancroft,BPD - Park Heights,Business,10/22/2014 05:27:48 PM,39.360901,-76.69785,21215,Cross Country,Northwestern,5,632,POINT (39.360901 -76.69785),,,
76,75 Downtown - Pennsylvania/Saint Mary,BPD - Downtown,Business,10/22/2014 05:27:45 PM,39.295822,-76.625063,21201,Seton Hill,Central,11,143,POINT (39.295822 -76.625063),,,
212,537 Greenmount - Greenmount/32nd St,BPD - Greenmount,Business,10/22/2014 05:27:47 PM,39.327658,-76.6091,21218,Better Waverly,Northern,14,513,POINT (39.327658 -76.6091),,,
316,832 Park Heights - Park Heights/Trainor (JCC),BPD - Park Heights,Business,10/22/2014 05:27:48 PM,39.353895,-76.686284,21215,Glen,Northwestern,5,632,POINT (39.353895 -76.686284),,,
301,817 Park Heights - Pimlico/Rosewood,BPD - Park Heights,Business,10/22/2014 05:27:48 PM,39.338999,-76.663974,21215,Central Park Heights,Northwestern,6,614,POINT (39.338999 -76.663974),,,
240,625 Monument - Milton/Biddle,BPD - Monument,Business,10/22/2014 05:27:47 PM,39.304777,-76.582694,21213,Broadway East,Eastern,13,331,POINT (39.304777 -76.582694),,,
470,1945 Northeast Market - McElderry/Chester,BPD - Northeast Market,Business,10/22/2014 05:27:50 PM,39.297525,-76.58778,21205,CARE,Eastern,13,321,POINT (39.297525 -76.58778),,,
8,7 Downtown - Paca/Pratt,BPD - Downtown,Business,10/22/2014 05:27:45 PM,39.286257,-76.622129,21201,Downtown West,Southern,11,941,POINT (39.286257 -76.622129),,,
256,712 North Ave West - North/Pulaski,BPD - North Ave West,Business,10/22/2014 05:27:48 PM,39.30968,-76.651339,21217,Easterwood,Western,7,741,POINT (39.30968 -76.651339),,,
62,61 Downtown - South/Baltimore,BPD - Downtown,Business,10/22/2014 05:27:45 PM,39.289701,-76.611048,21202,Downtown,Central,11,111,POINT (39.289701 -76.611048),,,
392,1103 Pennsylvania Ave - Pennsylvania/Gold,BPD - Pennsylvania Ave,Business,10/22/2014 05:27:49 PM,39.308384,-76.639434,21217,Druid Heights,Central,7,131,POINT (39.308384 -76.639434),,,
121,310 Cherry Hill - Giles/Shellbanks,BPD - Cherry Hill,Business,10/22/2014 05:27:46 PM,39.249721,-76.630346,21225,Cherry Hill,Southern,10,922,POINT (39.249721 -76.630346),,,
534,2122 Gilmore - Behind 1629 Balmor Ct,BPD - Gilmore,Business,10/22/2014 05:27:51 PM,39.305305,-76.643799,21217,Sandtown-Winchester,Western,7,743,POINT (39.305305 -76.643799),,,
455,1910 Inner Harbor - Trade Center,BPD - Inner Harbor,Business,10/22/2014 05:27:50 PM,39.286001,-76.610177,21202,Inner Harbor,Central,11,112,POINT (39.286001 -76.610177),,,
278,734 North Ave West - Whitelock/Francis,BPD - North Ave West,Business,10/22/2014 05:27:48 PM,39.311185,-76.640141,21217,Penn North,Western,7,733,POINT (39.311185 -76.640141),,,
552,2207 Latrobe - 831 McAleer Ct,BPD - Latrobe,Business,10/22/2014 05:27:51 PM,39.299977,-76.605282,21202,Oldtown,Eastern,12,312,POINT (39.299977 -76.605282),,,
569,2224 Latrobe - 1101 Wilmot Ct,BPD - Latrobe,Business,10/22/2014 05:27:51 PM,39.299288,-76.602729,21202,Oldtown,Eastern,12,312,POINT (39.299288 -76.602729),,,
88,205 Broadway - Baltimore/Washington,BPD - Broadway,Business,10/22/2014 05:27:46 PM,39.291747,-76.589201,21231,Washington Hill,Southeastern,13,212,POINT (39.291747 -76.589201),,,
393,1104 Pennsylvania Ave - Pennsylvania/Bloom,BPD - Pennsylvania Ave,Business,10/22/2014 05:27:49 PM,39.306656,-76.637159,21217,Upton,Central,11,123,POINT (39.306656 -76.637159),,,
227,612 Monument - Madison/Glover,BPD - Monument,Business,10/22/2014 05:27:47 PM,39.299997,-76.580263,21205,Madison-Eastend,Eastern,13,323,POINT (39.299997 -76.580263),,,
377,1019 Tri-District - Payson/McHenry,BPD - Tri-District,Business,10/22/2014 05:27:49 PM,39.284199,-76.648444,21223,Carrollton Ridge,Southern,9,934,POINT (39.284199 -76.648444),,,
557,2212 Latrobe - 948 Webb Ct,BPD - Latrobe,Business,10/22/2014 05:27:51 PM,39.300779,-76.603733,21202,Oldtown,Eastern,12,312,POINT (39.300779 -76.603733),,,
105,222 Broadway - Fleet/Ann,BPD - Broadway,Business,10/22/2014 05:27:46 PM,39.284726,-76.591353,21231,Fells Point,Southeastern,1,213,POINT (39.284726 -76.591353),,,
344,919 Southwest District - Mosher/Dukeland,BPD - Southwest District,Business,10/22/2014 05:27:49 PM,39.299255,-76.663437,21216,Mosher,Western,9,721,POINT (39.299255 -76.663437),,,
311,827 Park Heights - Park Heights/Fallstaff,BPD - Park Heights,Business,10/22/2014 05:27:48 PM,39.364947,-76.702819,21215,Cross Country,Northwestern,5,632,POINT (39.364947 -76.702819),,,
268,724 North Ave West - North/Fulton,BPD - North Ave West,Business,10/22/2014 05:27:48 PM,39.309889,-76.646518,21217,Mondawmin,Western,7,731,POINT (39.309889 -76.646518),,,
360,1002 Tri-District - McHenry/Stricker,BPD - Tri-District,Business,10/22/2014 05:27:49 PM,39.284448,-76.640738,21223,New Southwest/Mount Clare,Southern,9,935,POINT (39.284448 -76.640738),,,
30,29 Downtown - Charles/Mulberry,BPD - Downtown,Business,10/22/2014 05:27:45 PM,39.294151,-76.615489,21201,Downtown,Central,11,111,POINT (39.294151 -76.615489),,,
40,39 Downtown - Paca/Baltimore,BPD - Downtown,Business,10/22/2014 05:27:45 PM,39.289278,-76.62233,21201,University Of Maryland,Central,11,121,POINT (39.289278 -76.62233),,,
624,2508 Dept of Corrections - JFX North (Fixed),BPD - Dept of Corrections,Business,10/22/2014 05:27:52 PM,39.299625,-76.611231,21202,Mount Vernon,Eastern,12,312,POINT (39.299625 -76.611231),,,
164,353 Cherry Hill - Maint Backyard (fixed),BPD - Cherry Hill,Business,10/22/2014 05:27:47 PM,39.248009,-76.630665,21225,Cherry Hill,Southern,10,922,POINT (39.248009 -76.630665),,,
585,2312 Perkins - 354 Spring Ct,BPD - Perkins,Business,10/22/2014 05:27:51 PM,39.286491,-76.598156,21231,Perkins Homes,Southeastern,12,211,POINT (39.286491 -76.598156),,,
404,1115 Pennsylvania Ave - Fremont/Pitcher,BPD - Pennsylvania Ave,Business,10/22/2014 05:27:49 PM,39.302955,-76.633128,21217,Upton,Central,11,123,POINT (39.302955 -76.633128),,,
306,822 Park Heights - Park Heights/Glen,BPD - Park Heights,Business,10/22/2014 05:27:48 PM,39.355662,-76.688167,21215,Glen,Northwestern,5,632,POINT (39.355662 -76.688167),,,
72,71 Downtown - Market/Lombard,BPD - Downtown,Business,10/22/2014 05:27:45 PM,39.287904,-76.606944,21202,Downtown,Central,11,111,POINT (39.287904 -76.606944),,,
439,1406 Belair Rd - Belair/Cliftmont,BPD - Belair Rd,Business,10/22/2014 05:27:50 PM,39.319629,-76.57656,21213,Clifton Park,Northeastern,14,431,POINT (39.319629 -76.57656),,,
198,523 Greenmount - Barclay/Heaver,BPD - Greenmount,Business,10/22/2014 05:27:47 PM,39.312017,-76.61103,21218,Barclay,Eastern,12,341,POINT (39.312017 -76.61103),,,
421,1302 Harford Rd - Harford/Broadway,BPD - Harford Rd,Business,10/22/2014 05:27:49 PM,39.314162,-76.598862,21218,East Baltimore Midway,Eastern,12,342,POINT (39.314162 -76.598862),,,
445,1900 Inner Harbor - Demo Rusty Scupper,BPD - Inner Harbor,Business,10/22/2014 05:27:50 PM,39.281989,-76.607383,,Inner Harbor,Central,11,112,POINT (39.281989 -76.607383),,,
283,739 North Ave West - Lennox/Brookfield,BPD - North Ave West,Business,10/22/2014 05:27:48 PM,39.311544,-76.63164,21217,Reservoir Hill,Central,7,133,POINT (39.311544 -76.63164),,,
23,22 Downtown - Park/Lexington,BPD - Downtown,Business,10/22/2014 05:27:45 PM,39.291581,-76.61802,21201,Downtown,Central,11,111,POINT (39.291581 -76.61802),,,
141,330 Cherry Hill - Behune/Bunche,BPD - Cherry Hill,Business,10/22/2014 05:27:46 PM,39.245061,-76.623826,21225,Cherry Hill,Southern,10,922,POINT (39.245061 -76.623826),,,
170,401 Greektown - Eastern/Macon,BPD - Greektown,Business,10/22/2014 05:27:47 PM,39.287016,-76.557327,21224,Greektown,Southeastern,1,242,POINT (39.287016 -76.557327),,,
35,34 Downtown - Howard/Saratoga,BPD - Downtown,Business,10/22/2014 05:27:45 PM,39.292896,-76.619659,21201,Downtown,Central,11,111,POINT (39.292896 -76.619659),,,
95,212 Broadway - Pratt/Bond,BPD - Broadway,Business,10/22/2014 05:27:46 PM,39.28914,-76.595711,21231,Washington Hill,Southeastern,12,211,POINT (39.28914 -76.595711),,,
488,2001 McCulloh - 553 Dolphin St,BPD - McCulloh,Business,10/22/2014 05:27:50 PM,39.29971,-76.62877,21201,Upton,Central,11,123,POINT (39.29971 -76.62877),,,
236,621 Monument - Madison/Ellwood,BPD - Monument,Business,10/22/2014 05:27:47 PM,39.300243,-76.573908,21205,Madison-Eastend,Eastern,13,323,POINT (39.300243 -76.573908),,,
590,2317 Perkins - 326 Dallas Ct,BPD - Perkins,Business,10/22/2014 05:27:51 PM,39.287015,-76.596626,21231,Perkins Homes,Southeastern,12,211,POINT (39.287015 -76.596626),,,
505,2018 McCulloh - 443 Manse Ct,BPD - McCulloh,Business,10/22/2014 05:27:50 PM,39.301374,-76.626497,21201,Upton,Central,11,123,POINT (39.301374 -76.626497),,,
260,716 North Ave West - Payson/Herbert,BPD - North Ave West,Business,10/22/2014 05:27:48 PM,39.310392,-76.649955,21217,Mondawmin,Western,7,731,POINT (39.310392 -76.649955),,,
203,528 Greenmount - Barclay/Lafayette,BPD - Greenmount,Business,10/22/2014 05:27:47 PM,39.310033,-76.610892,21202,Greenmount West,Eastern,12,311,POINT (39.310033 -76.610892),,,
372,1014 Tri-District - Ramsay/Fulton,BPD - Tri-District,Business,10/22/2014 05:27:49 PM,39.283207,-76.644911,21223,Carrollton Ridge,Southern,9,934,POINT (39.283207 -76.644911),,,
67,66 Downtown - Commerce/Pratt,BPD - Downtown,Business,10/22/2014 05:27:45 PM,39.286662,-76.610022,21202,Inner Harbor,Central,11,112,POINT (39.286662 -76.610022),,,
451,1906 Inner Harbor - Visitor Center,BPD - Inner Harbor,Business,10/22/2014 05:27:50 PM,39.284265,-76.612485,21202,Inner Harbor,Central,11,112,POINT (39.284265 -76.612485),,,
100,217 Broadway - Bank/Caroline,BPD - Broadway,Business,10/22/2014 05:27:46 PM,39.286468,-76.596843,21231,Perkins Homes,Southeastern,12,211,POINT (39.286468 -76.596843),,,
339,914 Southwest District - Rosedale/Normount,BPD - Southwest District,Business,10/22/2014 05:27:49 PM,39.302958,-76.668978,21216,Rosemont,Southwestern,9,813,POINT (39.302958 -76.668978),,,
608,2414 PVG - NE Community Center,BPD - PVG,Business,10/22/2014 05:27:51 PM,39.293917,-76.601228,21202,Pleasant View Gardens,Southeastern,12,211,POINT (39.293917 -76.601228),,,
544,2132 Gilmore - 1521 Mountmor Ct,BPD - Gilmore,Business,10/22/2014 05:27:51 PM,39.307293,-76.644574,21217,Sandtown-Winchester,Western,7,742,POINT (39.307293 -76.644574),,,
481,1982 Hollins Market - Aisle Cam 1,BPD - Hollins Market,Business,10/22/2014 05:27:50 PM,39.287529,-76.635958,21223,Hollins Market,Southern,9,931,POINT (39.287529 -76.635958),,,
515,2103 Gilmore - Behind 1600 Bruce Ct,BPD - Gilmore,Business,10/22/2014 05:27:50 PM,39.307301,-76.644213,21217,Sandtown-Winchester,Western,7,742,POINT (39.307301 -76.644213),,,
575,2302 Perkins - 299 Srpint Ct,BPD - Perkins,Business,10/22/2014 05:27:51 PM,39.287504,-76.598044,21231,Perkins Homes,Southeastern,12,211,POINT (39.287504 -76.598044),,,
475,1964 Avenue Market - Pennsylvania/Laurens,BPD - Avenue Market,Business,10/22/2014 05:27:50 PM,39.304339,-76.63559,21217,Upton,Central,11,123,POINT (39.304339 -76.63559),,,
334,909 Southwest District - Poplar Grove/Presbury,BPD - Southwest District,Business,10/22/2014 05:27:49 PM,39.307159,-76.665568,21216,Northwest Community Action,Southwestern,7,813,POINT (39.307159 -76.665568),,,
294,810 Park Heights - Park Heights/Woodland,BPD - Park Heights,Business,10/22/2014 05:27:48 PM,39.345195,-76.6714,21215,Central Park Heights,Northwestern,6,614,POINT (39.345195 -76.6714),,,
231,616 Monument - Madison/Streeper,BPD - Monument,Business,10/22/2014 05:27:47 PM,39.300113,-76.577437,21205,Madison-Eastend,Eastern,13,323,POINT (39.300113 -76.577437),,,
541,2129 Gilmore - 1658 Delano Ct,BPD - Gilmore,Business,10/22/2014 05:27:51 PM,39.303492,-76.64388,21217,Sandtown-Winchester,Western,7,743,POINT (39.303492 -76.64388),,,
603,2409 PVG - SE Corner of  N Tot Lot,BPD - PVG,Business,10/22/2014 05:27:51 PM,39.294235,-76.60214,21202,Pleasant View Gardens,Southeastern,12,211,POINT (39.294235 -76.60214),,,
327,902 Southwest District - North/Rosedale,BPD - Southwest District,Business,10/22/2014 05:27:48 PM,39.309002,-76.669338,21216,Northwest Community Action,Southwestern,7,811,POINT (39.309002 -76.669338),,,
160,349 Cherry Hill - 2609 Carver Rd,BPD - Cherry Hill,Business,10/22/2014 05:27:46 PM,39.248642,-76.625822,21225,Cherry Hill,Southern,10,922,POINT (39.248642 -76.625822),,,
416,1208 North Ave East - North/Bel Air,BPD - North Ave East,Business,10/22/2014 05:27:49 PM,39.312303,-76.584864,21213,Broadway East,Eastern,12,331,POINT (39.312303 -76.584864),,,
11,10 Downtown - Greene/Fayette,BPD - Downtown,Business,10/22/2014 05:27:45 PM,39.290333,-76.623777,21201,University Of Maryland,Central,11,121,POINT (39.290333 -76.623777),,,
194,519 Greenmount - Guilford/21sr St,BPD - Greenmount,Business,10/22/2014 05:27:47 PM,39.313396,-76.612605,21218,Barclay,Northern,12,514,POINT (39.313396 -76.612605),,,
400,1111 Pennsylvania Ave - Division/Laurens,BPD - Pennsylvania Ave,Business,10/22/2014 05:27:49 PM,39.30481,-76.635305,21217,Upton,Central,11,123,POINT (39.30481 -76.635305),,,
55,54 Downtown - Charles/Lombard,BPD - Downtown,Business,10/22/2014 05:27:45 PM,39.287744,-76.614863,21201,Downtown,Central,11,111,POINT (39.287744 -76.614863),,,
367,1009 Tri-District - McHenry/Mount,BPD - Tri-District,Business,10/22/2014 05:27:49 PM,39.284365,-76.643554,21223,New Southwest/Mount Clare,Southern,9,935,POINT (39.284365 -76.643554),,,
174,405 Greektown - Eastern/Ponca,BPD - Greektown,Business,10/22/2014 05:27:47 PM,39.287102,-76.554981,21224,Pulaski Industrial Area,Southeastern,1,242,POINT (39.287102 -76.554981),,,
619,2503 Dept of Corrections - Monument/Fallsway,BPD - Dept of Corrections,Business,10/22/2014 05:27:52 PM,39.297164,-76.610635,21202,Penn-Fallsway,Eastern,11,312,POINT (39.297164 -76.610635),,,
145,334 Cherry Hill - Back Circle 1019 Bethune,BPD - Cherry Hill,Business,10/22/2014 05:27:46 PM,39.242728,-76.626792,21225,Cherry Hill,Southern,10,922,POINT (39.242728 -76.626792),,,
637,2611 Midtown - Charles/North,BPD - Midtown,Business,10/22/2014 05:27:52 PM,39.311621,-76.616429,21218,Charles North,Central,12,141,POINT (39.311621 -76.616429),,,
435,1402 Belair Rd - Belair/Elmora,BPD - Belair Rd,Business,10/22/2014 05:27:50 PM,39.316015,-76.579655,21213,Four By Four,Northeastern,13,434,POINT (39.316015 -76.579655),,,
521,2109 Gilmore - 1600 Vincent Ct,BPD - Gilmore,Business,10/22/2014 05:27:51 PM,39.306819,-76.644299,21217,Sandtown-Winchester,Western,7,742,POINT (39.306819 -76.644299),,,
113,302 Cherry Hill - Back of 1312 Shellbanks,BPD - Cherry Hill,Business,10/22/2014 05:27:46 PM,39.251197,-76.631439,21225,Cherry Hill,Southern,10,922,POINT (39.251197 -76.631439),,,
338,913 Southwest District - Bloomingdale/Belmont,BPD - Southwest District,Business,10/22/2014 05:27:49 PM,39.303537,-76.666169,21216,Northwest Community Action,Southwestern,9,813,POINT (39.303537 -76.666169),,,
492,2005 McCulloh - 534 Preston St,BPD - McCulloh,Business,10/22/2014 05:27:50 PM,39.299445,-76.627015,21201,Upton,Central,11,123,POINT (39.299445 -76.627015),,,
264,720 North Ave West - Monroe/Westwood,BPD - North Ave West,Business,10/22/2014 05:27:48 PM,39.308812,-76.648124,21217,Easterwood,Western,7,741,POINT (39.308812 -76.648124),,,
509,2022 McCulloh - 1000 Stoddard Ct,BPD - McCulloh,Business,10/22/2014 05:27:50 PM,39.299891,-76.625654,21201,Upton,Central,11,123,POINT (39.299891 -76.625654),,,
128,317 Cherry Hill - Spelman/Claflin Ct,BPD - Cherry Hill,Business,10/22/2014 05:27:46 PM,39.247049,-76.628802,21225,Cherry Hill,Southern,10,922,POINT (39.247049 -76.628802),,,
232,617 Monument - Mcelderry/Linwood,BPD - Monument,Business,10/22/2014 05:27:47 PM,39.297907,-76.576467,21205,Ellwood Park/Monument,Southeastern,13,224,POINT (39.297907 -76.576467),,,
349,924 Southwest District - Edmondson/Braddish,BPD - Southwest District,Business,10/22/2014 05:27:49 PM,39.294744,-76.659277,21223,Rosemont Homeowners/Tenants,Western,9,721,POINT (39.294744 -76.659277),,,
79,78 Downtown - Franklin/Saint Paul,BPD - Downtown,Business,10/22/2014 05:27:45 PM,39.29511,-76.613871,21202,Mount Vernon,Central,11,142,POINT (39.29511 -76.613871),,,
578,2305 Perkins - 269 Dallas Ct,BPD - Perkins,Business,10/22/2014 05:27:51 PM,39.288149,-76.596439,21231,Perkins Homes,Southeastern,12,211,POINT (39.288149 -76.596439),,,
199,524 Greenmount - Greenmount/North,BPD - Greenmount,Business,10/22/2014 05:27:47 PM,39.311216,-76.609619,21202,Greenmount West,Eastern,12,311,POINT (39.311216 -76.609619),,,
560,2215 Latrobe - 859 McAleer Ct,BPD - Latrobe,Business,10/22/2014 05:27:51 PM,39.299822,-76.604397,21202,Oldtown,Eastern,12,312,POINT (39.299822 -76.604397),,,
497,2010 McCulloh - 516 Preston St,BPD - McCulloh,Business,10/22/2014 05:27:50 PM,39.29908,-76.626523,21201,Upton,Central,11,123,POINT (39.29908 -76.626523),,,
549,2204 Latrobe - 800 McAleer Ct,BPD - Latrobe,Business,10/22/2014 05:27:51 PM,39.300299,-76.605958,21202,Oldtown,Eastern,12,312,POINT (39.300299 -76.605958),,,
510,2023 McCulloh - 442 Walton Ct,BPD - McCulloh,Business,10/22/2014 05:27:50 PM,39.299978,-76.624747,21201,Upton,Central,11,123,POINT (39.299978 -76.624747),,,
615,2421 PVG - NW Senior Center,BPD - PVG,Business,10/22/2014 05:27:52 PM,39.293477,-76.600734,21202,Pleasant View Gardens,Southeastern,12,211,POINT (39.293477 -76.600734),,,
570,2225 Latrobe - 945 Valley Ct,BPD - Latrobe,Business,10/22/2014 05:27:51 PM,39.300228,-76.604706,21202,Oldtown,Eastern,12,312,POINT (39.300228 -76.604706),,,
219,604 Monument - Madison/Mederia,BPD - Monument,Business,10/22/2014 05:27:47 PM,39.299697,-76.585991,21205,Middle East,Eastern,13,321,POINT (39.299697 -76.585991),,,
99,216 Broadway - Bank/Bond,BPD - Broadway,Business,10/22/2014 05:27:46 PM,39.286512,-76.59544,21231,Fells Point,Southeastern,1,213,POINT (39.286512 -76.59544),,,
405,1116 Pennsylvania Ave - Mosher/Argyle,BPD - Pennsylvania Ave,Business,10/22/2014 05:27:49 PM,39.300941,-76.634893,21217,Upton,Central,11,123,POINT (39.300941 -76.634893),,,
537,2125 Gilmore - 1601 Booker Ct,BPD - Gilmore,Business,10/22/2014 05:27:51 PM,39.304575,-76.643409,21217,Sandtown-Winchester,Western,7,743,POINT (39.304575 -76.643409),,,
476,1965 Avenue Market - Fremont/Laurens,BPD - Avenue Market,Business,10/22/2014 05:27:50 PM,39.303422,-76.63683,21217,Upton,Central,11,123,POINT (39.303422 -76.63683),,,
179,504 Greenmount - Barclay/27th,BPD - Greenmount,Business,10/22/2014 05:27:47 PM,39.32088,-76.611146,21218,Harwood,Northern,12,513,POINT (39.32088 -76.611146),,,
15,14 Downtown - Howard/Pratt,BPD - Downtown,Business,10/22/2014 05:27:45 PM,39.286315,-76.619369,21201,Downtown West,Central,11,113,POINT (39.286315 -76.619369),,,
133,322 Cherry Hill - 2824 Denham Cir,BPD - Cherry Hill,Business,10/22/2014 05:27:46 PM,39.244608,-76.628547,21225,Cherry Hill,Southern,10,922,POINT (39.244608 -76.628547),,,
593,2320 Perkins - 326 Herring t,BPD - Perkins,Business,10/22/2014 05:27:51 PM,39.287065,-76.595261,21231,Perkins Homes,Southeastern,12,211,POINT (39.287065 -76.595261),,,
43,42 Downtown - Paca/Mulberry,BPD - Downtown,Business,10/22/2014 05:27:45 PM,39.293837,-76.622571,21201,University Of Maryland,Central,11,121,POINT (39.293837 -76.622571),,,
382,1024 Tri-District - Pulaski/Ramsay,BPD - Tri-District,Business,10/22/2014 05:27:49 PM,39.283009,-76.649783,21223,Carrollton Ridge,Southern,9,934,POINT (39.283009 -76.649783),,,
525,2113 Gilmore - 1600 Sprat Ct,BPD - Gilmore,Business,10/22/2014 05:27:51 PM,39.305867,-76.644053,21217,Sandtown-Winchester,Western,7,742,POINT (39.305867 -76.644053),,,
632,2606 Midtown - Charles/Chase,BPD - Midtown,Business,10/22/2014 05:27:52 PM,39.302117,-76.615922,21201,Mid-Town Belvedere,Central,12,141,POINT (39.302117 -76.615922),,,
138,327 Cherry Hill - 3301 Round Rd,BPD - Cherry Hill,Business,10/22/2014 05:27:46 PM,39.244914,-76.62585,21225,Cherry Hill,Southern,10,922,POINT (39.244914 -76.62585),,,
75,74 Downtown - Druid Hill/Saint Mary,BPD - Downtown,Business,10/22/2014 05:27:45 PM,39.297505,-76.622871,21201,Seton Hill,Central,11,143,POINT (39.297505 -76.622871),,,
132,321 Cherry Hill - Rear of 2822 Denham,BPD - Cherry Hill,Business,10/22/2014 05:27:46 PM,39.244515,-76.628794,21225,Cherry Hill,Southern,10,922,POINT (39.244515 -76.628794),,,
353,928 Southwest District - Edmondson/Loudon,BPD - Southwest District,Business,10/22/2014 05:27:49 PM,39.293879,-76.682463,21229,Edmondson Village,Southwestern,8,844,POINT (39.293879 -76.682463),,,
245,701 North Ave West - Thomas/Presbury,BPD - North Ave West,Business,10/22/2014 05:27:47 PM,39.307524,-76.658071,21216,Coppin Heights/Ash-Co-East,Western,7,723,POINT (39.307524 -76.658071),,,
108,225 Broadway - Broadway/Aliceanna (East),BPD - Broadway,Business,10/22/2014 05:27:46 PM,39.283535,-76.593185,21231,Fells Point,Southeastern,1,213,POINT (39.283535 -76.593185),,,
252,708 North Ave West - Smallwood/Westwood,BPD - North Ave West,Business,10/22/2014 05:27:48 PM,39.308666,-76.652666,21216,Coppin Heights/Ash-Co-East,Western,7,723,POINT (39.308666 -76.652666),,,
4,3 Downtown - Eutaw/Baltimore,BPD - Downtown,Business,10/22/2014 05:27:45 PM,39.289324,-76.620985,21201,Downtown,Central,11,111,POINT (39.289324 -76.620985),,,
274,730 North Ave West - Cumberland/Pennsylvania,BPD - North Ave West,Business,10/22/2014 05:27:48 PM,39.309211,-76.641625,21217,Sandtown-Winchester,Western,7,742,POINT (39.309211 -76.641625),,,
371,1013 Tri-District - Wilhelm/Fulton,BPD - Tri-District,Business,10/22/2014 05:27:49 PM,39.28377,-76.644949,21223,Carrollton Ridge,Southern,9,934,POINT (39.28377 -76.644949),,,
211,536 Greenmount - Greenmount/31st St,BPD - Greenmount,Business,10/22/2014 05:27:47 PM,39.325619,-76.608589,21218,Better Waverly,Northern,14,513,POINT (39.325619 -76.608589),,,
530,2118 Gilmore - Presstman/Gilmor,BPD - Gilmore,Business,10/22/2014 05:27:51 PM,39.305305,-76.643799,21217,Sandtown-Winchester,Western,7,743,POINT (39.305305 -76.643799),,,
320,836 Park Heights - Park Heights/Strathmore,BPD - Park Heights,Business,10/22/2014 05:27:48 PM,39.359001,-76.694334,21215,Cross Country,Northwestern,5,632,POINT (39.359001 -76.694334),,,
564,2219 Latrobe - 1032 Ashland Ct,BPD - Latrobe,Business,10/22/2014 05:27:51 PM,39.300272,-76.602871,21202,Oldtown,Eastern,12,312,POINT (39.300272 -76.602871),,,
411,1203 North Ave East - North/Broadway,BPD - North Ave East,Business,10/22/2014 05:27:49 PM,39.311777,-76.595705,21213,Oliver,Eastern,12,343,POINT (39.311777 -76.595705),,,
582,2309 Perkins - 201 Herring Ct,BPD - Perkins,Business,10/22/2014 05:27:51 PM,39.289113,-76.595017,21231,Perkins Homes,Southeastern,12,211,POINT (39.289113 -76.595017),,,
553,2208 Latrobe - 859 Homewood Ave,BPD - Latrobe,Business,10/22/2014 05:27:51 PM,39.29995,-76.6059,21202,Oldtown,Eastern,12,312,POINT (39.29995 -76.6059),,,
611,2417 PVG - Elderly Bldg Courtyard,BPD - PVG,Business,10/22/2014 05:27:51 PM,39.293,-76.600684,21202,Pleasant View Gardens,Southeastern,12,211,POINT (39.293 -76.600684),,,
307,823 Park Heights - Park Heights/Taney,BPD - Park Heights,Business,10/22/2014 05:27:48 PM,39.357404,-76.691224,21215,Glen,Northwestern,5,632,POINT (39.357404 -76.691224),,,
426,1307 Harford Rd - Harford/Montpelier,BPD - Harford Rd,Business,10/22/2014 05:27:50 PM,39.31846,-76.594697,21218,Coldstream Homestead Montebello,Northeastern,14,411,POINT (39.31846 -76.594697),,,
440,1407 Belair Rd - Belair/Mareco,BPD - Belair Rd,Business,10/22/2014 05:27:50 PM,39.320451,-76.575054,21213,Clifton Park,Northeastern,14,431,POINT (39.320451 -76.575054),,,
535,2123 Gilmore - 1401 Mountmor Ct,BPD - Gilmore,Business,10/22/2014 05:27:51 PM,39.304435,-76.644281,21217,Sandtown-Winchester,Western,7,743,POINT (39.304435 -76.644281),,,
446,1901 Inner Harbor - Rusty Scupper,BPD - Inner Harbor,Business,10/22/2014 05:27:50 PM,39.281919,-76.607729,21230,Inner Harbor,Central,11,112,POINT (39.281919 -76.607729),,,
171,402 Greektown - Eastern/Oldham,BPD - Greektown,Business,10/22/2014 05:27:47 PM,39.28705,-76.55581,21224,Greektown,Southeastern,1,242,POINT (39.28705 -76.55581),,,
34,33 Downtown - Park/Saratoga,BPD - Downtown,Business,10/22/2014 05:27:45 PM,39.292954,-76.618158,21201,Downtown,Central,11,111,POINT (39.292954 -76.618158),,,
36,35 Downtown - Howard/Mulberry,BPD - Downtown,Business,10/22/2014 05:27:45 PM,39.293987,-76.619773,21201,Downtown,Central,11,111,POINT (39.293987 -76.619773),,,
152,341 Cherry Hill - Seagull Ave LLC 7076,BPD - Cherry Hill,Business,10/22/2014 05:27:46 PM,39.2433,-76.622775,21225,Cherry Hill,Southern,10,922,POINT (39.2433 -76.622775),,,
272,728 North Ave West - North/Pennsylvania,BPD - North Ave West,Business,10/22/2014 05:27:48 PM,39.309891,-76.642393,21217,Penn North,Western,7,733,POINT (39.309891 -76.642393),,,
47,46 Downtown - Eutaw/Franklin,BPD - Downtown,Business,10/22/2014 05:27:45 PM,39.29489,-76.62126,21201,Mount Vernon,Central,11,142,POINT (39.29489 -76.62126),,,
165,354 Cherry Hill - Maint Garage Doors,BPD - Cherry Hill,Business,10/22/2014 05:27:47 PM,39.248496,-76.629692,21225,Cherry Hill,Southern,10,922,POINT (39.248496 -76.629692),,,
288,804 Park Heights - Reisterstown/Grantley,BPD - Park Heights,Business,10/22/2014 05:27:48 PM,39.337571,-76.666884,21215,Central Park Heights,Northwestern,6,614,POINT (39.337571 -76.666884),,,
66,65 Downtown - Commerce/Lombard,BPD - Downtown,Business,10/22/2014 05:27:45 PM,39.287849,-76.610116,21202,Downtown,Central,11,111,POINT (39.287849 -76.610116),,,
598,2404 PVG - 1021 New Hope Cir,BPD - PVG,Business,10/22/2014 05:27:51 PM,39.293246,-76.602704,21202,Pleasant View Gardens,Southeastern,12,211,POINT (39.293246 -76.602704),,,
186,511 Greenmount - Cokesbury/23rd St,BPD - Greenmount,Business,10/22/2014 05:27:47 PM,39.316037,-76.607445,21218,East Baltimore Midway,Eastern,12,342,POINT (39.316037 -76.607445),,,
305,821 Park Heights - Park Heights/Manhattan,BPD - Park Heights,Business,10/22/2014 05:27:48 PM,39.353015,-76.685237,21215,Glen,Northwestern,5,632,POINT (39.353015 -76.685237),,,
19,18 Downtown - Park/Baltimore,BPD - Downtown,Business,10/22/2014 05:27:45 PM,39.289384,-76.61779,21201,Downtown,Central,11,111,POINT (39.289384 -76.61779),,,
461,1921 Federal Reserve - Sharp/Conway,BPD - Federal Reserve,Business,10/22/2014 05:27:50 PM,39.283978,-76.617647,21201,Otterbein,Southern,11,941,POINT (39.283978 -76.617647),,,
153,342 Cherry Hill - Behind 835 Seagull Ave,BPD - Cherry Hill,Business,10/22/2014 05:27:46 PM,39.244502,-76.620795,21225,Cherry Hill,Southern,10,922,POINT (39.244502 -76.620795),,,
386,1028 Tri-District - Pratt/Carey,BPD - Tri-District,Business,10/22/2014 05:27:49 PM,39.285587,-76.637984,21223,Union Square,Southern,9,933,POINT (39.285587 -76.637984),,,
628,2602 Midtown - Charles/Madison,BPD - Midtown,Business,10/22/2014 05:27:52 PM,39.298205,-76.61586,21201,Mount Vernon,Central,11,142,POINT (39.298205 -76.61586),,,
609,2415 PVG - SE Elderly Building,BPD - PVG,Business,10/22/2014 05:27:51 PM,39.292853,-76.600116,21202,Pleasant View Gardens,Southeastern,12,211,POINT (39.292853 -76.600116),,,
586,2313 Perkins - Community Building,BPD - Perkins,Business,10/22/2014 05:27:51 PM,39.286952,-76.597739,21231,Perkins Homes,Southeastern,12,211,POINT (39.286952 -76.597739),,,
182,507 Greenmount - Guilford/26th,BPD - Greenmount,Business,10/22/2014 05:27:47 PM,39.31952,-76.612954,21218,Harwood,Northern,12,513,POINT (39.31952 -76.612954),,,
438,1405 Belair Rd - Belair at Shopping Center,BPD - Belair Rd,Business,10/22/2014 05:27:50 PM,39.318271,-76.577468,21213,Belair-Edison,Northeastern,13,434,POINT (39.318271 -76.577468),,,
197,522 Greenmount - Barclay/20th St,BPD - Greenmount,Business,10/22/2014 05:27:47 PM,39.312432,-76.611052,21218,Barclay,Eastern,12,341,POINT (39.312432 -76.611052),,,
415,1207 North Ave East - North/Collington,BPD - North Ave East,Business,10/22/2014 05:27:49 PM,39.312229,-76.588435,21213,Broadway East,Eastern,12,331,POINT (39.312229 -76.588435),,,
24,23 Downtown - Liberty/Lexington,BPD - Downtown,Business,10/22/2014 05:27:45 PM,39.29167,-76.617084,21201,Downtown,Central,11,111,POINT (39.29167 -76.617084),,,
46,45 Downtown - Greene/Saratoga,BPD - Downtown,Business,10/22/2014 05:27:45 PM,39.29284,-76.623895,21201,University Of Maryland,Central,11,121,POINT (39.29284 -76.623895),,,
295,811 Park Heights - Garrison/Denmore,BPD - Park Heights,Business,10/22/2014 05:27:48 PM,39.346728,-76.674801,21215,Central Park Heights,Northwestern,6,614,POINT (39.346728 -76.674801),,,
602,2408 PVG - 1100 Colvin St,BPD - PVG,Business,10/22/2014 05:27:51 PM,39.292618,-76.603337,21202,Pleasant View Gardens,Southeastern,12,211,POINT (39.292618 -76.603337),,,
604,2410 PVG - NW Corner of S Tot Lot,BPD - PVG,Business,10/22/2014 05:27:51 PM,39.293295,-76.602213,21202,Pleasant View Gardens,Southeastern,12,211,POINT (39.293295 -76.602213),,,
300,816 Park Heights - Pimlico/Loyola Northway,BPD - Park Heights,Business,10/22/2014 05:27:48 PM,39.33854,-76.66362,21215,Central Park Heights,Northwestern,6,614,POINT (39.33854 -76.66362),,,
61,60 Downtown - Guilford/Lexington,BPD - Downtown,Business,10/22/2014 05:27:45 PM,39.291245,-76.611114,21202,Downtown,Central,11,111,POINT (39.291245 -76.611114),,,
122,311 Cherry Hill - Rear of 2701 Giles/Shelbanks,BPD - Cherry Hill,Business,10/22/2014 05:27:46 PM,39.249429,-76.6298,21225,Cherry Hill,Southern,10,922,POINT (39.249429 -76.6298),,,
290,806 Park Heights - Park Heights/Garrison,BPD - Park Heights,Business,10/22/2014 05:27:48 PM,39.347399,-76.673583,21215,Central Park Heights,Northwestern,6,614,POINT (39.347399 -76.673583),,,
210,535 Greenmount - Greenmount/30th,BPD - Greenmount,Business,10/22/2014 05:27:47 PM,39.323562,-76.608829,21218,Better Waverly,Northern,14,513,POINT (39.323562 -76.608829),,,
568,2223 Latrobe - 1130 McAleer Ct,BPD - Latrobe,Business,10/22/2014 05:27:51 PM,39.299909,-76.602239,21202,Oldtown,Eastern,12,312,POINT (39.299909 -76.602239),,,
267,723 North Ave West - Fulton/Westwood,BPD - North Ave West,Business,10/22/2014 05:27:48 PM,39.308853,-76.646459,21217,Sandtown-Winchester,Western,7,742,POINT (39.308853 -76.646459),,,
29,28 Downtown - Mulberry/Cathedral,BPD - Downtown,Business,10/22/2014 05:27:45 PM,39.294053,-76.616793,21201,Downtown,Central,11,111,POINT (39.294053 -76.616793),,,
427,1308 Harford Rd - Harford/Homestead,BPD - Harford Rd,Business,10/22/2014 05:27:50 PM,39.31846,-76.594697,21218,Coldstream Homestead Montebello,Northeastern,14,411,POINT (39.31846 -76.594697),,,
73,72 Downtown - Pearl/Lexington,BPD - Downtown,Business,10/22/2014 05:27:45 PM,39.291325,-76.624648,21201,University Of Maryland,Central,11,121,POINT (39.291325 -76.624648),,,
403,1114 Pennsylvania Ave - Pennsylvania/Pitcher,BPD - Pennsylvania Ave,Business,10/22/2014 05:27:49 PM,39.302955,-76.633128,21217,Upton,Central,11,123,POINT (39.302955 -76.633128),,,
14,13 Downtown - Howard/Lombard,BPD - Downtown,Business,10/22/2014 05:27:45 PM,39.289645,-76.624159,21201,University Of Maryland,Central,11,121,POINT (39.289645 -76.624159),,,
462,1922 Federal Reserve - Hamburg St,BPD - Federal Reserve,Business,10/22/2014 05:27:50 PM,39.278279,-76.618031,21230,Sharp-Leadenhall,Southern,11,941,POINT (39.278279 -76.618031),,,
394,1105 Pennsylvania Ave - Fremont/Presstman,BPD - Pennsylvania Ave,Business,10/22/2014 05:27:49 PM,39.305112,-76.635566,21217,Upton,Central,11,123,POINT (39.305112 -76.635566),,,
56,55 Downtown - St Paul/Lexington,BPD - Downtown,Business,10/22/2014 05:27:45 PM,39.29117,-76.613976,21202,Downtown,Central,11,111,POINT (39.29117 -76.613976),,,
597,2403 PVG - 1110 New Hope Cir,BPD - PVG,Business,10/22/2014 05:27:51 PM,39.29374,-76.601853,21202,Pleasant View Gardens,Southeastern,12,211,POINT (39.29374 -76.601853),,,
322,838 Park Heights - Park Heights/ N Bancroft,BPD - Park Heights,Business,10/22/2014 05:27:48 PM,39.361739,-76.69888,21215,Cross Country,Northwestern,5,632,POINT (39.361739 -76.69888),,,
638,2612 Midtown - Charles/20th,BPD - Midtown,Business,10/22/2014 05:27:52 PM,39.313036,-76.61661,21218,Charles North,Northern,12,514,POINT (39.313036 -76.61661),,,
148,337 Cherry Hill - 3446 Spelman (Parking Lot),BPD - Cherry Hill,Business,10/22/2014 05:27:46 PM,39.242225,-76.625503,21225,Cherry Hill,Southern,10,922,POINT (39.242225 -76.625503),,,
520,2108 Gilmore - 1600 Mountmor Ct,BPD - Gilmore,Business,10/22/2014 05:27:51 PM,39.3068,-76.644716,21217,Sandtown-Winchester,Western,7,742,POINT (39.3068 -76.644716),,,
51,50 Downtown - Cathedra/Centre,BPD - Downtown,Business,10/22/2014 05:27:45 PM,39.296299,-76.616957,21201,Mount Vernon,Central,11,142,POINT (39.296299 -76.616957),,,
486,1987 Hollins Market - Arlington Ave Entrance,BPD - Hollins Market,Business,10/22/2014 05:27:50 PM,39.287366,-76.634676,21223,Hollins Market,Southern,9,931,POINT (39.287366 -76.634676),,,
345,920 Southwest District - Poplar Grove/Lafayette,BPD - Southwest District,Business,10/22/2014 05:27:49 PM,39.297977,-76.665206,21216,Franklintown Road,Southwestern,9,814,POINT (39.297977 -76.665206),,,
243,628 Monument - Jefferson/Glover,BPD - Monument,Business,10/22/2014 05:27:47 PM,39.296764,-76.579964,21205,McElderry Park,Southeastern,13,221,POINT (39.296764 -76.579964),,,
187,512 Greenmount - Brentwood/24th,BPD - Greenmount,Business,10/22/2014 05:27:47 PM,39.316257,-76.610429,21218,Barclay,Eastern,12,341,POINT (39.316257 -76.610429),,,
361,1003 Tri-District - Stricker/Ramsay,BPD - Tri-District,Business,10/22/2014 05:27:49 PM,39.283346,-76.640686,21223,New Southwest/Mount Clare,Southern,9,935,POINT (39.283346 -76.640686),,,
563,2218 Latrobe - 1101 Webb Ct,BPD - Latrobe,Business,10/22/2014 05:27:51 PM,39.300601,-76.602715,21202,Oldtown,Eastern,12,312,POINT (39.300601 -76.602715),,,
89,206 Broadway - Lombard/Broadway,BPD - Broadway,Business,10/22/2014 05:27:46 PM,39.290399,-76.593869,21231,Washington Hill,Southeastern,12,212,POINT (39.290399 -76.593869),,,
163,352 Cherry Hill - Maint Backyard (fixed),BPD - Cherry Hill,Business,10/22/2014 05:27:47 PM,39.24824,-76.63086,21225,Cherry Hill,Southern,10,922,POINT (39.24824 -76.63086),,,
631,2605 Midtown - Charles/Eager,BPD - Midtown,Business,10/22/2014 05:27:52 PM,39.300928,-76.615754,21201,Mount Vernon,Central,12,142,POINT (39.300928 -76.615754),,,
193,518 Greenmount - Barclay/21st St,BPD - Greenmount,Business,10/22/2014 05:27:47 PM,39.314009,-76.611211,21218,Barclay,Eastern,12,341,POINT (39.314009 -76.611211),,,
420,1301 Harford Rd - Harford/20th,BPD - Harford Rd,Business,10/22/2014 05:27:49 PM,39.313488,-76.599726,21218,East Baltimore Midway,Eastern,12,342,POINT (39.313488 -76.599726),,,
178,503 Greenmount - Greenmount/27th,BPD - Greenmount,Business,10/22/2014 05:27:47 PM,39.320922,-76.609532,21218,Harwood,Northern,12,513,POINT (39.320922 -76.609532),,,
117,306 Cherry Hill - Back of 1301 Slater Rd,BPD - Cherry Hill,Business,10/22/2014 05:27:46 PM,39.249631,-76.63295,21225,Cherry Hill,Southern,10,922,POINT (39.249631 -76.63295),,,
226,611 Monument - Monument/Luzerne,BPD - Monument,Business,10/22/2014 05:27:47 PM,39.298915,-76.580905,21205,Milton-Montford,Eastern,13,323,POINT (39.298915 -76.580905),,,
282,738 - North Ave WestNorth/Linden,BPD - North Ave West,Business,10/22/2014 05:27:48 PM,39.310498,-76.632557,21217,Bolton Hill,Central,11,132,POINT (39.310498 -76.632557),,,
434,1401 Belair Rd - Belair/Ravenwood,BPD - Belair Rd,Business,10/22/2014 05:27:50 PM,39.315323,-76.58219,21213,Clifton Park,Northeastern,14,431,POINT (39.315323 -76.58219),,,
84,201 Broadway - Fayette/Broadway,BPD - Broadway,Business,10/22/2014 05:27:46 PM,39.293968,-76.594117,21231,Dunbar-Broadway,Southeastern,12,212,POINT (39.293968 -76.594117),,,
388,1040 Tri-District - Hirsh Bus Lot,BPD - Tri-District,Business,10/22/2014 05:27:49 PM,39.283061,-76.635196,21223,Washington Village/Pigtown,Southern,10,932,POINT (39.283061 -76.635196),,,
237,622 Monument - Monument/Robinson,BPD - Monument,Business,10/22/2014 05:27:47 PM,39.299225,-76.573121,21205,Madison-Eastend,Eastern,13,323,POINT (39.299225 -76.573121),,,
373,1015 Tri-District - McHenry/Addison,BPD - Tri-District,Business,10/22/2014 05:27:49 PM,39.284307,-76.645788,21223,Carrollton Ridge,Southern,9,934,POINT (39.284307 -76.645788),,,
469,1944 Northeast Market - NE Market Middle,BPD - Northeast Market,Business,10/22/2014 05:27:50 PM,39.298141,-76.587517,21205,CARE,Eastern,13,321,POINT (39.298141 -76.587517),,,
78,77 Downtown - Saratoga/Charles,BPD - Downtown,Business,10/22/2014 05:27:45 PM,39.292327,-76.615414,21201,Downtown,Central,11,111,POINT (39.292327 -76.615414),,,
591,2318 Perkins - 336 Mason Ct,BPD - Perkins,Business,10/22/2014 05:27:51 PM,39.286851,-76.596045,21231,Perkins Homes,Southeastern,12,211,POINT (39.286851 -76.596045),,,
9,8 Downtown - Greene/Lombard,BPD - Downtown,Business,10/22/2014 05:27:45 PM,39.287415,-76.623616,21201,University Of Maryland,Central,11,121,POINT (39.287415 -76.623616),,,
253,709 North Ave West - North/Smallwood,BPD - North Ave West,Business,10/22/2014 05:27:48 PM,39.309613,-76.652712,21216,Coppin Heights/Ash-Co-East,Western,7,723,POINT (39.309613 -76.652712),,,
328,903 Southwest District - North/Longwood,BPD - Southwest District,Business,10/22/2014 05:27:48 PM,39.309079,-76.667563,21216,Northwest Community Action,Southwestern,7,811,POINT (39.309079 -76.667563),,,
531,2119 Gilmore - 1638 Balmor Ct,BPD - Gilmore,Business,10/22/2014 05:27:51 PM,39.305192,-76.644086,21217,Sandtown-Winchester,Western,7,743,POINT (39.305192 -76.644086),,,
41,40 Downtown - Eutaw/Saratoga,BPD - Downtown,Business,10/22/2014 05:27:45 PM,39.29283,-76.621145,21201,Downtown,Central,11,111,POINT (39.29283 -76.621145),,,
450,1905 Inner Harbor - Spirit Of Baltimore,BPD - Inner Harbor,Business,10/22/2014 05:27:50 PM,39.285747,-76.61081,21202,Inner Harbor,Central,11,112,POINT (39.285747 -76.61081),,,
101,218 Broadway - Easter/Broadway,BPD - Broadway,Business,10/22/2014 05:27:46 PM,39.285578,-76.593557,21231,Fells Point,Southeastern,1,213,POINT (39.285578 -76.593557),,,
312,828 Park Heights - Park Heights/Belvedere,BPD - Park Heights,Business,10/22/2014 05:27:48 PM,39.34887,-76.67585,21215,Central Park Heights,Northwestern,6,614,POINT (39.34887 -76.67585),,,
279,735 North Ave West - Druidhill/Whitelock,BPD - North Ave West,Business,10/22/2014 05:27:48 PM,39.31156,-76.639296,21217,Penn North,Western,7,733,POINT (39.31156 -76.639296),,,
214,539 Greenmount - 27th/Matthews,BPD - Greenmount,Business,10/22/2014 05:27:47 PM,39.320915,-76.607789,21218,Better Waverly,Northern,14,513,POINT (39.320915 -76.607789),,,
625,2509 Dept of Corrections - Graves Street,BPD - Dept of Corrections,Business,10/22/2014 05:27:52 PM,39.298325,-76.60787,21202,Penn-Fallsway,Eastern,12,312,POINT (39.298325 -76.60787),,,
498,2011 McCulloh - 514 Preston St,BPD - McCulloh,Business,10/22/2014 05:27:50 PM,39.299365,-76.626601,21201,Upton,Central,11,123,POINT (39.299365 -76.626601),,,
399,1110 Pennsylvania Ave - Robert/Fremon,BPD - Pennsylvania Ave,Business,10/22/2014 05:27:49 PM,39.305112,-76.635566,21217,Upton,Central,11,123,POINT (39.305112 -76.635566),,,
516,2104 Gilmore - 1605 Bruce Ct,BPD - Gilmore,Business,10/22/2014 05:27:50 PM,39.307301,-76.644213,21217,Sandtown-Winchester,Western,7,742,POINT (39.307301 -76.644213),,,
355,930 Southwest District - Rosedale/Brighton,BPD - Southwest District,Business,10/22/2014 05:27:49 PM,39.30445,-76.668745,21216,Rosemont,Southwestern,9,813,POINT (39.30445 -76.668745),,,
378,1020 Tri-District - PaysonRamsay,BPD - Tri-District,Business,10/22/2014 05:27:49 PM,39.283082,-76.648399,21223,Carrollton Ridge,Southern,9,934,POINT (39.283082 -76.648399),,,
576,2303 Perkins - 264 Ballou Ct,BPD - Perkins,Business,10/22/2014 05:27:51 PM,39.288027,-76.597514,21231,Perkins Homes,Southeastern,12,211,POINT (39.288027 -76.597514),,,
558,2213 Latrobe - 921 Webb Ct,BPD - Latrobe,Business,10/22/2014 05:27:51 PM,39.300438,-76.604303,21202,Oldtown,Eastern,12,312,POINT (39.300438 -76.604303),,,
106,223 Broadway - Fleet/Caroline,BPD - Broadway,Business,10/22/2014 05:27:46 PM,39.284425,-76.596724,21231,Fells Point,Southeastern,1,213,POINT (39.284425 -76.596724),,,
636,2610 Midtown - Charles/Lanvale,BPD - Midtown,Business,10/22/2014 05:27:52 PM,39.30887,-76.616101,21201,Charles North,Central,12,141,POINT (39.30887 -76.616101),,,
333,908 Southwest District - Rosedale/Grayson,BPD - Southwest District,Business,10/22/2014 05:27:49 PM,39.306478,-76.669179,21216,Rosemont,Southwestern,9,813,POINT (39.306478 -76.669179),,,
620,2504 Dept of Corrections - Eager St Widows Peak,BPD - Dept of Corrections,Business,10/22/2014 05:27:52 PM,39.301375,-76.609774,21202,Johnston Square,Eastern,12,311,POINT (39.301375 -76.609774),,,
144,333 Cherry Hill - Bethune/Spelman,BPD - Cherry Hill,Business,10/22/2014 05:27:46 PM,39.243618,-76.626069,21225,Cherry Hill,Southern,10,922,POINT (39.243618 -76.626069),,,
220,605 Monument - Monument/Patterson Park,BPD - Monument,Business,10/22/2014 05:27:47 PM,39.29867,-76.584993,21205,McElderry Park,Southeastern,13,221,POINT (39.29867 -76.584993),,,
94,211 Broadway - Pratt/Broadway,BPD - Broadway,Business,10/22/2014 05:27:46 PM,39.289257,-76.593803,21231,Washington Hill,Southeastern,12,212,POINT (39.289257 -76.593803),,,
504,2017 McCulloh - 440 Oxford Ct,BPD - McCulloh,Business,10/22/2014 05:27:50 PM,39.30055,-76.625118,21201,Upton,Central,11,123,POINT (39.30055 -76.625118),,,
542,2130 Gilmore - 1628 Delano Ct,BPD - Gilmore,Business,10/22/2014 05:27:51 PM,39.30376,-76.643846,21217,Sandtown-Winchester,Western,7,743,POINT (39.30376 -76.643846),,,
68,67 Downtown - Custom House,BPD - Downtown,Business,10/22/2014 05:27:45 PM,39.28921,-76.609755,21202,Downtown,Central,11,111,POINT (39.28921 -76.609755),,,
248,704 North Ave West - Warwick/Westwood,BPD - North Ave West,Business,10/22/2014 05:27:47 PM,39.308489,-76.657154,21216,Coppin Heights/Ash-Co-East,Western,7,723,POINT (39.308489 -76.657154),,,
259,715 North Ave West - North/Payson,BPD - North Ave West,Business,10/22/2014 05:27:48 PM,39.30973,-76.649921,21217,Easterwood,Western,7,741,POINT (39.30973 -76.649921),,,
159,348 Cherry Hill - 2627 Carver Rd,BPD - Cherry Hill,Business,10/22/2014 05:27:46 PM,39.247836,-76.626256,21225,Cherry Hill,Southern,10,922,POINT (39.247836 -76.626256),,,
204,529 Greenmount - Barclay/Pitman,BPD - Greenmount,Business,10/22/2014 05:27:47 PM,39.308463,-76.610751,21202,Greenmount West,Eastern,12,311,POINT (39.308463 -76.610751),,,
112,301 Cherry Hill - Behind 2708 Berea Rd,BPD - Cherry Hill,Business,10/22/2014 05:27:46 PM,39.250639,-76.632866,21225,Cherry Hill,Southern,10,922,POINT (39.250639 -76.632866),,,
340,915 Southwest District - Winchester/Longwood,BPD - Southwest District,Business,10/22/2014 05:27:49 PM,39.301316,-76.667342,21216,Winchester,Southwestern,9,814,POINT (39.301316 -76.667342),,,
482,1983 Hollins Market - Aisle Cam 2,BPD - Hollins Market,Business,10/22/2014 05:27:50 PM,39.287529,-76.635958,21223,Hollins Market,Southern,9,931,POINT (39.287529 -76.635958),,,
543,2131 Gilmore - 1600 Delano Ct,BPD - Gilmore,Business,10/22/2014 05:27:51 PM,39.303492,-76.64388,21217,Sandtown-Winchester,Western,7,743,POINT (39.303492 -76.64388),,,
134,323 Cherry Hill - 2820 Spelman,BPD - Cherry Hill,Business,10/22/2014 05:27:46 PM,39.24487,-76.62798,21225,Cherry Hill,Southern,10,922,POINT (39.24487 -76.62798),,,
412,1204 North Ave East - Wolfe/North,BPD - North Ave East,Business,10/22/2014 05:27:49 PM,39.312,-76.592326,21213,Broadway East,Eastern,12,331,POINT (39.312 -76.592326),,,
287,803 Park Heights - Towonda/Oswego,BPD - Park Heights,Business,10/22/2014 05:27:48 PM,39.334465,-76.665989,21215,Towanda-Grantley,Northwestern,6,613,POINT (39.334465 -76.665989),,,
474,1963 Avenue Market - Avenue Market Back,BPD - Avenue Market,Business,10/22/2014 05:27:50 PM,39.303537,-76.635647,21217,Upton,Central,11,123,POINT (39.303537 -76.635647),,,
230,615 Monument - Monument/Kenwood,BPD - Monument,Business,10/22/2014 05:27:47 PM,39.299029,-76.578085,21205,Madison-Eastend,Eastern,13,323,POINT (39.299029 -76.578085),,,
635,2609 Midtown - Charles/Mount Royal,BPD - Midtown,Business,10/22/2014 05:27:52 PM,39.305448,-76.616364,21201,Mid-Town Belvedere,Central,11,141,POINT (39.305448 -76.616364),,,
406,1117 Pennsylvania Ave - Pennsylvania/Mosher,BPD - Pennsylvania Ave,Business,10/22/2014 05:27:49 PM,39.302489,-76.632308,21217,Upton,Central,11,123,POINT (39.302489 -76.632308),,,
315,831 Park Heights - Park Heights/Oswego,BPD - Park Heights,Business,10/22/2014 05:27:48 PM,39.33563,-76.66328,21215,Central Park Heights,Northwestern,6,614,POINT (39.33563 -76.66328),,,
139,328 Cherry Hill - Behind 911 Coppin Ct,BPD - Cherry Hill,Business,10/22/2014 05:27:46 PM,39.245028,-76.624986,21225,Cherry Hill,Southern,10,922,POINT (39.245028 -76.624986),,,
587,2314 Perkins - 1413 Gough St,BPD - Perkins,Business,10/22/2014 05:27:51 PM,39.287356,-76.597433,21231,Perkins Homes,Southeastern,12,211,POINT (39.287356 -76.597433),,,
308,824 Park Heights - Park Heights/Strathmore,BPD - Park Heights,Business,10/22/2014 05:27:48 PM,39.358776,-76.693902,21215,Cross Country,Northwestern,5,632,POINT (39.358776 -76.693902),,,
233,618 Monument - Monument/Curley,BPD - Monument,Business,10/22/2014 05:27:47 PM,39.299112,-76.575962,21205,Madison-Eastend,Eastern,13,323,POINT (39.299112 -76.575962),,,
5,4 Downtown - Eutaw/Redwood,BPD - Downtown,Business,10/22/2014 05:27:45 PM,39.288678,-76.620948,21201,Downtown,Central,11,111,POINT (39.288678 -76.620948),,,
275,731 North Ave West - North/Division,BPD - North Ave West,Business,10/22/2014 05:27:48 PM,39.310153,-76.640912,21217,Penn North,Western,7,733,POINT (39.310153 -76.640912),,,
527,2115 Gilmore - 1601 Spray Ct,BPD - Gilmore,Business,10/22/2014 05:27:51 PM,39.305901,-76.644092,21217,Sandtown-Winchester,Western,7,742,POINT (39.305901 -76.644092),,,
454,1909 Inner Harbor - Constellation Pier,BPD - Inner Harbor,Business,10/22/2014 05:27:50 PM,39.285255,-76.610822,,Inner Harbor,Central,11,112,POINT (39.285255 -76.610822),,,
447,1902 Inner Harbor - Rash Field,BPD - Inner Harbor,Business,10/22/2014 05:27:50 PM,39.281859,-76.609305,21230,Inner Harbor,Central,11,112,POINT (39.281859 -76.609305),,,
249,705 North Ave West - Moreland/Westwood,BPD - North Ave West,Business,10/22/2014 05:27:47 PM,39.308514,-76.655912,21216,Coppin Heights/Ash-Co-East,Western,7,723,POINT (39.308514 -76.655912),,,
82,81 Downtown - Howard/Conway,BPD - Downtown,Business,10/22/2014 05:27:45 PM,39.284197,-76.618899,21201,Downtown West,Southern,11,941,POINT (39.284197 -76.618899),,,
172,403 Greektown - Eastern/Lehigh,BPD - Greektown,Business,10/22/2014 05:27:47 PM,39.287142,-76.558053,21224,Greektown,Southeastern,1,242,POINT (39.287142 -76.558053),,,
37,36 Downtown - Howard/Franklin,BPD - Downtown,Business,10/22/2014 05:27:45 PM,39.295446,-76.620446,21201,Mount Vernon,Central,11,142,POINT (39.295446 -76.620446),,,
494,2007 McCulloh - 535 Hoffman St,BPD - McCulloh,Business,10/22/2014 05:27:50 PM,39.299036,-76.627952,21201,Upton,Central,11,123,POINT (39.299036 -76.627952),,,
511,2024 McCulloh - 900 Stoddard Ct,BPD - McCulloh,Business,10/22/2014 05:27:50 PM,39.298914,-76.624478,21201,Upton,Central,11,123,POINT (39.298914 -76.624478),,,
441,1408 Belair Rd - Belair/Clifton Park,BPD - Belair Rd,Business,10/22/2014 05:27:50 PM,39.321314,-76.574455,21213,Belair-Edison,Northeastern,13,432,POINT (39.321314 -76.574455),,,
614,2420 PVG - Daycare Center Play Area,BPD - PVG,Business,10/22/2014 05:27:52 PM,39.292481,-76.601998,21202,Pleasant View Gardens,Southeastern,12,211,POINT (39.292481 -76.601998),,,
166,355 Cherry Hill - Back of Comm Ctr,BPD - Cherry Hill,Business,10/22/2014 05:27:47 PM,39.247959,-76.631044,21225,Cherry Hill,Southern,10,922,POINT (39.247959 -76.631044),,,
554,2209 Latrobe - 820 Hillman Ct,BPD - Latrobe,Business,10/22/2014 05:27:51 PM,39.299387,-76.60571,21202,Oldtown,Eastern,12,312,POINT (39.299387 -76.60571),,,
571,2226 Latrobe - 901 Valley st,BPD - Latrobe,Business,10/22/2014 05:27:51 PM,39.300228,-76.604706,21202,Oldtown,Eastern,12,312,POINT (39.300228 -76.604706),,,
385,1027 Tri-District - Smallwood/Ashton,BPD - Tri-District,Business,10/22/2014 05:27:49 PM,39.281932,-76.651191,21223,Carrollton Ridge,Southwestern,9,841,POINT (39.281932 -76.651191),,,
263,719 North Ave West - Appleton/Westwood,BPD - North Ave West,Business,10/22/2014 05:27:48 PM,39.308785,-76.648996,21217,Easterwood,Western,7,741,POINT (39.308785 -76.648996),,,
216,601 Monument - Monument/Chester,BPD - Monument,Business,10/22/2014 05:27:47 PM,39.298647,-76.587869,21205,Middle East,Eastern,13,321,POINT (39.298647 -76.587869),,,
508,2021 McCulloh - 1034 Stoddard Ct,BPD - McCulloh,Business,10/22/2014 05:27:50 PM,39.300326,-76.626191,21201,Upton,Central,11,123,POINT (39.300326 -76.626191),,,
116,305 Cherry Hill - Shellbanks/Blyden,BPD - Cherry Hill,Business,10/22/2014 05:27:46 PM,39.250484,-76.631866,21225,Cherry Hill,Southern,10,922,POINT (39.250484 -76.631866),,,
538,2126 Gilmore - 1629 Lorman Ct,BPD - Gilmore,Business,10/22/2014 05:27:51 PM,39.304001,-76.643863,21217,Sandtown-Winchester,Western,7,743,POINT (39.304001 -76.643863),,,
352,927 Southwest District - Edmondson/Swan,BPD - Southwest District,Business,10/22/2014 05:27:49 PM,39.293489,-76.693827,21229,Rognel Heights,Southwestern,8,822,POINT (39.293489 -76.693827),,,
127,316 Cherry Hill - Behind Community Center,BPD - Cherry Hill,Business,10/22/2014 05:27:46 PM,39.247172,-76.629874,21225,Cherry Hill,Southern,10,922,POINT (39.247172 -76.629874),,,
366,1008 Tri-District - Pratt/Mount,BPD - Tri-District,Business,10/22/2014 05:27:49 PM,39.28532,-76.643621,21223,Union Square,Southern,9,933,POINT (39.28532 -76.643621),,,
577,2304 Perkins - 229 Ballou Ct,BPD - Perkins,Business,10/22/2014 05:27:51 PM,39.288607,-76.597213,21231,Perkins Homes,Southeastern,12,211,POINT (39.288607 -76.597213),,,
477,1966 Avenue Market - Avenue Market Parking Lot,BPD - Avenue Market,Business,10/22/2014 05:27:50 PM,39.303665,-76.634952,21217,Upton,Central,11,123,POINT (39.303665 -76.634952),,,
200,525 Greenmount - North/Guilford,BPD - Greenmount,Business,10/22/2014 05:27:47 PM,39.311306,-76.611809,21202,Greenmount West,Eastern,12,311,POINT (39.311306 -76.611809),,,
149,338 Cherry Hill - Spelman Rd LLC 7076,BPD - Cherry Hill,Business,10/22/2014 05:27:46 PM,39.242505,-76.623955,21225,Cherry Hill,Southern,10,922,POINT (39.242505 -76.623955),,,
50,49 Downtown - Paca/George,BPD - Downtown,Business,10/22/2014 05:27:45 PM,39.295792,-76.622656,21201,Seton Hill,Central,11,143,POINT (39.295792 -76.622656),,,
548,2203 Latrobe - 818 Webb Ct,BPD - Latrobe,Business,10/22/2014 05:27:51 PM,39.301009,-76.605687,21202,Oldtown,Eastern,12,312,POINT (39.301009 -76.605687),,,
581,2308 Perkins - 295 Mason Ct,BPD - Perkins,Business,10/22/2014 05:27:51 PM,39.28768,-76.595631,21231,Perkins Homes,Southeastern,12,211,POINT (39.28768 -76.595631),,,
605,2411 PVG - SE Corner of W Tot Lot,BPD - PVG,Business,10/22/2014 05:27:51 PM,39.293022,-76.603181,21202,Pleasant View Gardens,Southeastern,12,211,POINT (39.293022 -76.603181),,,
65,64 Downtown - Holliday/Fayette,BPD - Downtown,Business,10/22/2014 05:27:45 PM,39.290498,-76.610276,21202,Downtown,Central,11,111,POINT (39.290498 -76.610276),,,
304,820 Park Heights - Park Heights/Rogers,BPD - Park Heights,Business,10/22/2014 05:27:48 PM,39.351855,-76.683323,21215,Pimlico Good Neighbors,Northwestern,5,633,POINT (39.351855 -76.683323),,,
20,19 Downtown - Howard/Baltimore,BPD - Downtown,Business,10/22/2014 05:27:45 PM,39.289386,-76.61948,21201,Downtown,Central,11,111,POINT (39.289386 -76.61948),,,
291,807 Park Heights - Reisterstown/Laporte,BPD - Park Heights,Business,10/22/2014 05:27:48 PM,39.339445,-76.668406,21215,Central Park Heights,Northwestern,6,614,POINT (39.339445 -76.668406),,,
154,343 Cherry Hill - 835 Seagull Ave,BPD - Cherry Hill,Business,10/22/2014 05:27:46 PM,39.244783,-76.621161,21225,Cherry Hill,Southern,10,922,POINT (39.244783 -76.621161),,,
428,1309 Harford Rd - Harford/Abbotston,BPD - Harford Rd,Business,10/22/2014 05:27:50 PM,39.320479,-76.59277,21218,Coldstream Homestead Montebello,Northeastern,14,411,POINT (39.320479 -76.59277),,,
98,215 Broadway - Bank/Broadway,BPD - Broadway,Business,10/22/2014 05:27:46 PM,39.286609,-76.593638,21231,Fells Point,Southeastern,1,213,POINT (39.286609 -76.593638),,,
337,912 Southwest District - Poplar Grove/Pressman,BPD - Southwest District,Business,10/22/2014 05:27:49 PM,39.304661,-76.665592,21216,Northwest Community Action,Southwestern,9,813,POINT (39.304661 -76.665592),,,
423,1304 Harford Rd - Harford/Cliftview,BPD - Harford Rd,Business,10/22/2014 05:27:49 PM,39.315982,-76.596818,21218,East Baltimore Midway,Eastern,12,342,POINT (39.315982 -76.596818),,,
271,727 North Ave West - North/Carey,BPD - North Ave West,Business,10/22/2014 05:27:48 PM,39.310024,-76.64372,21217,Penn North,Western,7,733,POINT (39.310024 -76.64372),,,
319,835 Park Heights - Park Heights/Pinkney,BPD - Park Heights,Business,10/22/2014 05:27:48 PM,39.358184,-76.692778,21215,Cross Country,Northwestern,5,632,POINT (39.358184 -76.692778),,,
52,51 Downtown - Center Plaza (Charles Plaza),BPD - Downtown,Business,10/22/2014 05:27:45 PM,39.291322,-76.616474,21201,Downtown,Central,11,111,POINT (39.291322 -76.616474),,,
69,68 Downtown - Gay/Baltimore,BPD - Downtown,Business,10/22/2014 05:27:45 PM,39.289772,-76.608945,21202,Downtown,Central,11,111,POINT (39.289772 -76.608945),,,
205,530 Greenmount - Greenmount/Preston,BPD - Greenmount,Business,10/22/2014 05:27:47 PM,39.304839,-76.608199,21202,Johnston Square,Eastern,12,311,POINT (39.304839 -76.608199),,,
183,508 Greenmount - Falls St Alley,BPD - Greenmount,Business,10/22/2014 05:27:47 PM,39.31806,-76.612169,21218,Harwood,Northern,12,513,POINT (39.31806 -76.612169),,,
188,513 Greenmount - Greenmount/23rd St,BPD - Greenmount,Business,10/22/2014 05:27:47 PM,39.315491,-76.609524,21218,Barclay,Eastern,12,341,POINT (39.315491 -76.609524),,,
341,916 Southwest District - Bloomingdale/Ellicott DWY,BPD - Southwest District,Business,10/22/2014 05:27:49 PM,39.302175,-76.665651,21216,Winchester,Southwestern,9,814,POINT (39.302175 -76.665651),,,
457,1912 Inner Harbor - Pier 5 Lighthouse,BPD - Inner Harbor,Business,10/22/2014 05:27:50 PM,39.283375,-76.605212,,Inner Harbor,Central,11,112,POINT (39.283375 -76.605212),,,
18,17 Downtown - Hopkins Place/Lombard,BPD - Downtown,Business,10/22/2014 05:27:45 PM,39.287668,-76.617692,21201,Downtown,Central,11,111,POINT (39.287668 -76.617692),,,
610,2416 PVG - SW Elderly Building,BPD - PVG,Business,10/22/2014 05:27:51 PM,39.292816,-76.600697,21202,Pleasant View Gardens,Southeastern,12,211,POINT (39.292816 -76.600697),,,
381,1023 Tri-District - Pulaski/Wilhelm,BPD - Tri-District,Business,10/22/2014 05:27:49 PM,39.283599,-76.649785,21223,Carrollton Ridge,Southern,9,934,POINT (39.283599 -76.649785),,,
524,2112 Gilmore - 1641 Vincent Ct,BPD - Gilmore,Business,10/22/2014 05:27:51 PM,39.307393,-76.644125,21217,Sandtown-Winchester,Western,7,742,POINT (39.307393 -76.644125),,,
483,1984 Hollins Market - Aisle Cam 3,BPD - Hollins Market,Business,10/22/2014 05:27:50 PM,39.287529,-76.635958,21223,Hollins Market,Southern,9,931,POINT (39.287529 -76.635958),,,
131,320 Cherry Hill - Side of 2810 Denham Cr,BPD - Cherry Hill,Business,10/22/2014 05:27:46 PM,39.245532,-76.628935,21225,Cherry Hill,Southern,10,922,POINT (39.245532 -76.628935),,,
348,923 Southwest District - Poplar Grove/Edmondson,BPD - Southwest District,Business,10/22/2014 05:27:49 PM,39.29452,-76.664808,21223,Mosher,Western,9,721,POINT (39.29452 -76.664808),,,
491,2004 McCulloh - 517 Dolphin St,BPD - McCulloh,Business,10/22/2014 05:27:50 PM,39.300195,-76.628213,21201,Upton,Central,11,123,POINT (39.300195 -76.628213),,,
601,2407 PVG - 215 St Matthew St,BPD - PVG,Business,10/22/2014 05:27:51 PM,39.293632,-76.603893,21202,Pleasant View Gardens,Southeastern,12,211,POINT (39.293632 -76.603893),,,
370,1012 Tri-District - Fulton/McHenry,BPD - Tri-District,Business,10/22/2014 05:27:49 PM,39.284334,-76.644981,21223,Carrollton Ridge,Southern,9,934,POINT (39.284334 -76.644981),,,
567,2222 Latrobe - 1116 McAleer Ct,BPD - Latrobe,Business,10/22/2014 05:27:51 PM,39.300149,-76.602136,21202,Oldtown,Eastern,12,312,POINT (39.300149 -76.602136),,,
33,32 Downtown - Park/Mulberry,BPD - Downtown,Business,10/22/2014 05:27:45 PM,39.294017,-76.618224,21201,Downtown,Central,11,111,POINT (39.294017 -76.618224),,,
346,921 Southwest District - Franklintown/Longwood,BPD - Southwest District,Business,10/22/2014 05:27:49 PM,39.296935,-76.666835,21216,Franklintown Road,Southwestern,9,814,POINT (39.296935 -76.666835),,,
640,2614 Midtown - Maryland/Oliver,BPD - Midtown,Business,10/22/2014 05:27:52 PM,39.306571,-76.617625,21201,Mid-Town Belvedere,Central,11,141,POINT (39.306571 -76.617625),,,
158,347 Cherry Hill - Rear of 2805 Carver,BPD - Cherry Hill,Business,10/22/2014 05:27:46 PM,39.247806,-76.625636,21225,Cherry Hill,Southern,10,922,POINT (39.247806 -76.625636),,,
627,2601 Midtown - Charles/Center,BPD - Midtown,Business,10/22/2014 05:27:52 PM,39.296589,-76.615371,21201,Mount Vernon,Central,11,142,POINT (39.296589 -76.615371),,,
13,12 Downtown - Paca/Fayette,BPD - Downtown,Business,10/22/2014 05:27:45 PM,39.29037,-76.622411,21201,Downtown,Central,11,111,POINT (39.29037 -76.622411),,,
74,73 Downtown - Greene/Mulberry,BPD - Downtown,Business,10/22/2014 05:27:45 PM,39.293779,-76.62393,21201,University Of Maryland,Central,11,121,POINT (39.293779 -76.62393),,,
181,506 Greenmount - Greenmount/Lorraine,BPD - Greenmount,Business,10/22/2014 05:27:47 PM,39.320012,-76.609532,21218,Harwood,Northern,12,513,POINT (39.320012 -76.609532),,,
398,1109 Pennsylvania Ave - Pennsylvania/Robert,BPD - Pennsylvania Ave,Business,10/22/2014 05:27:49 PM,39.305112,-76.635566,21217,Upton,Central,11,123,POINT (39.305112 -76.635566),,,
323,839 Park Heights - 3500 W Northern Pkwy (E&T),BPD - Park Heights,Business,10/22/2014 05:27:48 PM,39.353595,-76.68417,21215,Glen,Northwestern,5,632,POINT (39.353595 -76.68417),,,
463,1923 Federal Reserve - Pratt/Sharp,BPD - Federal Reserve,Business,10/22/2014 05:27:50 PM,39.286162,-76.618012,21201,Downtown West,Central,11,113,POINT (39.286162 -76.618012),,,
596,2402 PVG - 310 Forrest ST,BPD - PVG,Business,10/22/2014 05:27:51 PM,39.294543,-76.603085,21202,Pleasant View Gardens,Southeastern,12,211,POINT (39.294543 -76.603085),,,
621,2505 Dept of Corrections - Warden St Lot,BPD - Dept of Corrections,Business,10/22/2014 05:27:52 PM,39.301928,-76.61026,21202,Johnston Square,Eastern,12,311,POINT (39.301928 -76.61026),,,
639,2613 Midtown - Maryland/Mount Royal,BPD - Midtown,Business,10/22/2014 05:27:52 PM,39.305516,-76.617605,21201,Mid-Town Belvedere,Central,11,141,POINT (39.305516 -76.617605),,,
147,336 Cherry Hill - 3456 Spelman,BPD - Cherry Hill,Business,10/22/2014 05:27:46 PM,39.242625,-76.625283,21225,Cherry Hill,Southern,10,922,POINT (39.242625 -76.625283),,,
519,2107 Gilmore - 1678 Mountmor Ct,BPD - Gilmore,Business,10/22/2014 05:27:50 PM,39.30776,-76.642965,21217,Sandtown-Winchester,Western,7,742,POINT (39.30776 -76.642965),,,
45,44 Downtown - Greene/Franklin,BPD - Downtown,Business,10/22/2014 05:27:45 PM,39.294792,-76.623951,21201,Seton Hill,Central,11,143,POINT (39.294792 -76.623951),,,
258,714 North Ave West - Pulaski/Walbrook,BPD - North Ave West,Business,10/22/2014 05:27:48 PM,39.310763,-76.651397,21217,Mondawmin,Western,7,731,POINT (39.310763 -76.651397),,,
485,1986 Hollins Market - Boyd St Side Entrance,BPD - Hollins Market,Business,10/22/2014 05:27:50 PM,39.287293,-76.635223,21223,Hollins Market,Southern,9,931,POINT (39.287293 -76.635223),,,
238,623 Monument - Madison/Curley,BPD - Monument,Business,10/22/2014 05:27:47 PM,39.300151,-76.57604,21205,Madison-Eastend,Eastern,13,323,POINT (39.300151 -76.57604),,,
468,1943 Northeast Market - NE Market South,BPD - Northeast Market,Business,10/22/2014 05:27:50 PM,39.298141,-76.587517,21205,CARE,Eastern,13,321,POINT (39.298141 -76.587517),,,
102,219 Broadway - Eastern/Ann,BPD - Broadway,Business,10/22/2014 05:27:46 PM,39.285686,-76.591406,21231,Upper Fells Point,Southeastern,1,212,POINT (39.285686 -76.591406),,,
374,1016 Tri-District - Pratt/Monroe,BPD - Tri-District,Business,10/22/2014 05:27:49 PM,39.285175,-76.646775,21223,Carrollton Ridge,Southern,9,934,POINT (39.285175 -76.646775),,,
580,2307 Perkins - 299 Mason Ct,BPD - Perkins,Business,10/22/2014 05:27:51 PM,39.287625,-76.595753,21231,Perkins Homes,Southeastern,12,211,POINT (39.287625 -76.595753),,,
562,2217 Latrobe - 1000 Abbott Ct,BPD - Latrobe,Business,10/22/2014 05:27:51 PM,39.301361,-76.602739,21202,Oldtown,Eastern,12,312,POINT (39.301361 -76.602739),,,
90,207 Broadway - Lombard/Ann,BPD - Broadway,Business,10/22/2014 05:27:46 PM,39.290499,-76.59171,21231,Washington Hill,Southeastern,13,212,POINT (39.290499 -76.59171),,,
503,2016 McCulloh - 1001 Tiffany Ct,BPD - McCulloh,Business,10/22/2014 05:27:50 PM,39.300815,-76.624464,21201,Upton,Central,11,123,POINT (39.300815 -76.624464),,,
209,534 Greenmount - Greenmount/29th,BPD - Greenmount,Business,10/22/2014 05:27:47 PM,39.324669,-76.612491,21218,Abell,Northern,14,513,POINT (39.324669 -76.612491),,,
547,2202 Latrobe - 856 Abbott Ct,BPD - Latrobe,Business,10/22/2014 05:27:51 PM,39.30133,-76.605018,21202,Oldtown,Eastern,12,312,POINT (39.30133 -76.605018),,,
606,2412 PVG - Courtyard Play Area,BPD - PVG,Business,10/22/2014 05:27:51 PM,39.293431,-76.601326,21202,Pleasant View Gardens,Southeastern,12,211,POINT (39.293431 -76.601326),,,
517,2105 Gilmore - 1601 Bakbury Ct,BPD - Gilmore,Business,10/22/2014 05:27:50 PM,39.307428,-76.64389,21217,Sandtown-Winchester,Western,7,742,POINT (39.307428 -76.64389),,,
225,610 Monument - Mcelderry/Rose,BPD - Monument,Business,10/22/2014 05:27:47 PM,39.297811,-76.581469,21205,McElderry Park,Southeastern,13,221,POINT (39.297811 -76.581469),,,
107,224 Broadway - Fleet/Eden,BPD - Broadway,Business,10/22/2014 05:27:46 PM,39.284346,-76.598245,21202,Inner Harbor,Southeastern,1,211,POINT (39.284346 -76.598245),,,
379,1021 Tri-District - Payson/Ashton,BPD - Tri-District,Business,10/22/2014 05:27:49 PM,39.282815,-76.648393,21223,Carrollton Ridge,Southern,9,934,POINT (39.282815 -76.648393),,,
613,2419 PVG - Daycare Center,BPD - PVG,Business,10/22/2014 05:27:51 PM,39.292034,-76.602227,21202,Pleasant View Gardens,Southeastern,12,211,POINT (39.292034 -76.602227),,,
539,2127 Gilmore - 1631 Lorman Ct,BPD - Gilmore,Business,10/22/2014 05:27:51 PM,39.304067,-76.644225,21217,Sandtown-Winchester,Western,7,743,POINT (39.304067 -76.644225),,,
329,904 Southwest District - North/Poplar Grove,BPD - Southwest District,Business,10/22/2014 05:27:48 PM,39.309232,-76.665669,21216,Walbrook,Southwestern,7,811,POINT (39.309232 -76.665669),,,
42,41 Downtown - Paca/Saratoga,BPD - Downtown,Business,10/22/2014 05:27:45 PM,39.292822,-76.622539,21201,University Of Maryland,Central,11,121,POINT (39.292822 -76.622539),,,
313,829 Park Heights - Park Heights/Virginia,BPD - Park Heights,Business,10/22/2014 05:27:48 PM,39.344111,-76.67047,21215,Central Park Heights,Northwestern,6,614,POINT (39.344111 -76.67047),,,
28,27 Downtown - Cathedral/Saratoga,BPD - Downtown,Business,10/22/2014 05:27:45 PM,39.293019,-76.616777,21201,Downtown,Central,11,111,POINT (39.293019 -76.616777),,,
266,722 North Ave West - Monroe/Walbrook,BPD - North Ave West,Business,10/22/2014 05:27:48 PM,39.310883,-76.648237,21217,Mondawmin,Western,7,731,POINT (39.310883 -76.648237),,,
162,351 Cherry Hill - Carver Rd front of school,BPD - Cherry Hill,Business,10/22/2014 05:27:47 PM,39.246398,-76.624348,21225,Cherry Hill,Southern,10,922,POINT (39.246398 -76.624348),,,
362,1004 Tri-District - Parrish/McHenry,BPD - Tri-District,Business,10/22/2014 05:27:49 PM,39.284448,-76.641438,21223,New Southwest/Mount Clare,Southern,9,935,POINT (39.284448 -76.641438),,,
402,1113 Pennsylvania Ave - Division/Wilson,BPD - Pennsylvania Ave,Business,10/22/2014 05:27:49 PM,39.304446,-76.634215,21217,Upton,Central,11,123,POINT (39.304446 -76.634215),,,
192,517 Greenmount - Homewood/22nd St,BPD - Greenmount,Business,10/22/2014 05:27:47 PM,39.314628,-76.607322,21218,East Baltimore Midway,Eastern,12,342,POINT (39.314628 -76.607322),,,
57,56 Downtown - Light/Redwood,BPD - Downtown,Business,10/22/2014 05:27:45 PM,39.28882,-76.613717,21202,Downtown,Central,11,111,POINT (39.28882 -76.613717),,,
118,307 Cherry Hill - Behind Bld 1200,BPD - Cherry Hill,Business,10/22/2014 05:27:46 PM,39.250543,-76.631405,21225,Cherry Hill,Southern,10,922,POINT (39.250543 -76.631405),,,
414,1206 North Ave East - North/Chester,BPD - North Ave East,Business,10/22/2014 05:27:49 PM,39.312186,-76.5897,21213,Broadway East,Eastern,12,331,POINT (39.312186 -76.5897),,,
177,502 Greenmount - Greenmount/28th,BPD - Greenmount,Business,10/22/2014 05:27:47 PM,39.32215,-76.609508,21218,Harwood,Northern,12,513,POINT (39.32215 -76.609508),,,
143,332 Cherry Hill - 3401 Round Rd,BPD - Cherry Hill,Business,10/22/2014 05:27:46 PM,39.244002,-76.624479,21225,Cherry Hill,Southern,10,922,POINT (39.244002 -76.624479),,,
432,1313 Harford Rd - Harford/Hugo,BPD - Harford Rd,Business,10/22/2014 05:27:50 PM,39.32385,-76.58983,21218,Coldstream Homestead Montebello,Northeastern,14,411,POINT (39.32385 -76.58983),,,
25,24 Downtown - Liberty/Fayette,BPD - Downtown,Business,10/22/2014 05:27:45 PM,39.290451,-76.617674,21201,Downtown,Central,11,111,POINT (39.290451 -76.617674),,,
10,9 Downtown - Greene/Baltimore,BPD - Downtown,Business,10/22/2014 05:27:45 PM,39.289222,-76.623695,21201,University Of Maryland,Central,11,121,POINT (39.289222 -76.623695),,,
77,76 Downtown - Eutaw/Monument,BPD - Downtown,Business,10/22/2014 05:27:45 PM,39.297269,-76.621448,21201,Seton Hill,Central,11,143,POINT (39.297269 -76.621448),,,
592,2319 Perkins - 329 Mason Ct,BPD - Perkins,Business,10/22/2014 05:27:51 PM,39.28698,-76.595717,21231,Perkins Homes,Southeastern,12,211,POINT (39.28698 -76.595717),,,
299,815 Park Heights - Quntico/Pimlico,BPD - Park Heights,Business,10/22/2014 05:27:48 PM,39.337417,-76.662933,21215,Central Park Heights,Northwestern,6,614,POINT (39.337417 -76.662933),,,
123,312 Cherry Hill - Sethlow/Slater,BPD - Cherry Hill,Business,10/22/2014 05:27:46 PM,39.248398,-76.630831,21225,Cherry Hill,Southern,10,922,POINT (39.248398 -76.630831),,,
60,59 Downtown - Calvert/Lombard,BPD - Downtown,Business,10/22/2014 05:27:45 PM,39.287825,-76.612135,21202,Downtown,Central,11,111,POINT (39.287825 -76.612135),,,
390,1101 Pennsylvania Ave - Pennsylvania/Baker,BPD - Pennsylvania Ave,Business,10/22/2014 05:27:49 PM,39.308384,-76.639434,21217,Druid Heights,Central,7,131,POINT (39.308384 -76.639434),,,
242,627 Monument - Collington/Jefferson,BPD - Monument,Business,10/22/2014 05:27:47 PM,39.296416,-76.586669,21205,CARE,Eastern,13,321,POINT (39.296416 -76.586669),,,
254,710 North Ave West - Smallwood/Ridgehill,BPD - North Ave West,Business,10/22/2014 05:27:48 PM,39.311245,-76.652804,21216,Mondawmin,Western,7,731,POINT (39.311245 -76.652804),,,
449,1904 Inner Harbor - Science Center,BPD - Inner Harbor,Business,10/22/2014 05:27:50 PM,39.282007,-76.611625,21202,Inner Harbor,Central,11,112,POINT (39.282007 -76.611625),,,
532,2120 Gilmore - 1458 Mountmor Ct,BPD - Gilmore,Business,10/22/2014 05:27:51 PM,39.305248,-76.64463,21217,Sandtown-Winchester,Western,7,743,POINT (39.305248 -76.64463),,,
213,538 Greenmount - Greenmount/33rd St,BPD - Greenmount,Business,10/22/2014 05:27:47 PM,39.328972,-76.609427,21218,Waverly,Northern,14,543,POINT (39.328972 -76.609427),,,
499,2012 McCulloh - 1020 Druid Hill,BPD - McCulloh,Business,10/22/2014 05:27:50 PM,39.299944,-76.626479,21201,Upton,Central,11,123,POINT (39.299944 -76.626479),,,
280,736 North Ave West - North/McCulloh,BPD - North Ave West,Business,10/22/2014 05:27:48 PM,39.309502,-76.653885,21216,Coppin Heights/Ash-Co-East,Western,7,723,POINT (39.309502 -76.653885),,,
395,1106 Pennsylvania Ave - Pennsylvania/Presstman,BPD - Pennsylvania Ave,Business,10/22/2014 05:27:49 PM,39.305112,-76.635566,21217,Upton,Central,11,123,POINT (39.305112 -76.635566),,,
356,931 Southwest District - Riggls/Dukeland,BPD - Southwest District,Business,10/22/2014 05:27:49 PM,39.300511,-76.664808,21216,Winchester,Southwestern,9,814,POINT (39.300511 -76.664808),,,
572,2227 Latrobe - 901 McAleer Ct,BPD - Latrobe,Business,10/22/2014 05:27:51 PM,39.29965,-76.604636,21202,Oldtown,Eastern,12,312,POINT (39.29965 -76.604636),,,
559,2214 Latrobe - 948 Ashland Ct,BPD - Latrobe,Business,10/22/2014 05:27:51 PM,39.300223,-76.603785,21202,Oldtown,Eastern,12,312,POINT (39.300223 -76.603785),,,
85,202 Broadway - Fairmount/Broadway,BPD - Broadway,Business,10/22/2014 05:27:46 PM,39.292632,-76.594029,21231,Washington Hill,Southeastern,12,212,POINT (39.292632 -76.594029),,,
221,606 Monument - Mcelderry/Bradford,BPD - Monument,Business,10/22/2014 05:27:47 PM,39.297622,-76.584299,21205,McElderry Park,Southeastern,13,221,POINT (39.297622 -76.584299),,,
296,812 Park Heights - Garrison/Palmer,BPD - Park Heights,Business,10/22/2014 05:27:48 PM,39.348089,-76.672387,21215,Central Park Heights,Northwestern,6,614,POINT (39.348089 -76.672387),,,
155,344 Cherry Hill - SeagullBethune,BPD - Cherry Hill,Business,10/22/2014 05:27:46 PM,39.245257,-76.620876,21225,Cherry Hill,Southern,10,922,POINT (39.245257 -76.620876),,,
309,825 Park Heights - Park Heights/Fords,BPD - Park Heights,Business,10/22/2014 05:27:48 PM,39.360162,-76.696572,21215,Cross Country,Northwestern,5,632,POINT (39.360162 -76.696572),,,
464,1924 Federal Reserve - Pratt/Light,BPD - Federal Reserve,Business,10/22/2014 05:27:50 PM,39.286269,-76.613998,21202,Downtown West,Central,11,113,POINT (39.286269 -76.613998),,,
324,840 Park Heights - Park Heights/Oakford,BPD - Park Heights,Business,10/22/2014 05:27:48 PM,39.340351,-76.666938,21215,Central Park Heights,Northwestern,6,614,POINT (39.340351 -76.666938),,,
448,1903 Inner Harbor - Carousel,BPD - Inner Harbor,Business,10/22/2014 05:27:50 PM,39.281847,-76.610001,21230,Inner Harbor,Central,11,112,POINT (39.281847 -76.610001),,,
424,1305 Harford Rd - Harford/25th,BPD - Harford Rd,Business,10/22/2014 05:27:49 PM,39.316861,-76.596464,21218,East Baltimore Midway,Eastern,12,342,POINT (39.316861 -76.596464),,,
38,37 Downtown - Howard/Centre,BPD - Downtown,Business,10/22/2014 05:27:45 PM,39.296209,-76.619917,21201,Mount Vernon,Central,11,142,POINT (39.296209 -76.619917),,,
173,404 Greektown - Eastern/Newkirk,BPD - Greektown,Business,10/22/2014 05:27:47 PM,39.287034,-76.556592,21224,Greektown,Southeastern,1,242,POINT (39.287034 -76.556592),,,
270,726 North Ave West - Mount/Westwood,BPD - North Ave West,Business,10/22/2014 05:27:48 PM,39.308893,-76.644946,21217,Sandtown-Winchester,Western,7,742,POINT (39.308893 -76.644946),,,
150,339 Cherry Hill - 3486 Spelman Rd,BPD - Cherry Hill,Business,10/22/2014 05:27:46 PM,39.242171,-76.62413,21225,Cherry Hill,Southern,10,922,POINT (39.242171 -76.62413),,,
32,31 Downtown - Park/Franklin,BPD - Downtown,Business,10/22/2014 05:27:45 PM,39.295011,-76.618324,21201,Mount Vernon,Central,11,142,POINT (39.295011 -76.618324),,,
53,52 Downtown - Hopkins Plaza,BPD - Downtown,Business,10/22/2014 05:27:45 PM,39.288789,-76.616271,21201,Downtown,Central,11,111,POINT (39.288789 -76.616271),,,
418,1210 North Ave East - North/Milton,BPD - North Ave East,Business,10/22/2014 05:27:49 PM,39.312164,-76.582877,21213,Berea,Eastern,13,332,POINT (39.312164 -76.582877),,,
196,521 Greenmount - Greenmount/Worsley,BPD - Greenmount,Business,10/22/2014 05:27:47 PM,39.312737,-76.609537,21218,Barclay,Eastern,12,341,POINT (39.312737 -76.609537),,,
189,514 Greenmount - Guilford/23rd St,BPD - Greenmount,Business,10/22/2014 05:27:47 PM,39.315424,-76.612717,21218,Barclay,Northern,12,514,POINT (39.315424 -76.612717),,,
21,20 Downtown - Howard/Fayette,BPD - Downtown,Business,10/22/2014 05:27:45 PM,39.290447,-76.61949,21201,Downtown,Central,11,111,POINT (39.290447 -76.61949),,,
437,1404 Belair Rd - Belair/Elmly,BPD - Belair Rd,Business,10/22/2014 05:27:50 PM,39.316651,-76.578579,21213,Four By Four,Northeastern,13,434,POINT (39.316651 -76.578579),,,
281,737 North Ave West - North/Bentalou,BPD - North Ave West,Business,10/22/2014 05:27:48 PM,39.309498,-76.654149,21216,Coppin Heights/Ash-Co-East,Western,7,723,POINT (39.309498 -76.654149),,,
384,1026 Tri-District - Smallwood/Ramsay,BPD - Tri-District,Business,10/22/2014 05:27:49 PM,39.28293,-76.651205,21223,Carrollton Ridge,Southwestern,9,841,POINT (39.28293 -76.651205),,,
630,2604 Midtown - Park/Read,BPD - Midtown,Business,10/22/2014 05:27:52 PM,39.300243,-76.618626,21201,Mount Vernon,Central,11,142,POINT (39.300243 -76.618626),,,
588,2315 Perkins - 319 Ballou Ct,BPD - Perkins,Business,10/22/2014 05:27:51 PM,39.287111,-76.597126,21231,Perkins Homes,Southeastern,12,211,POINT (39.287111 -76.597126),,,
314,830 Park Heights - Park Heights/Wiley,BPD - Park Heights,Business,10/22/2014 05:27:48 PM,39.341018,-76.667569,21215,Central Park Heights,Northwestern,6,614,POINT (39.341018 -76.667569),,,
217,602 Monument - Mcelderry/Duncan,BPD - Monument,Business,10/22/2014 05:27:47 PM,39.297607,-76.58715,21205,CARE,Eastern,13,321,POINT (39.297607 -76.58715),,,
336,911 Southwest District - Bloomingdale/Brighton,BPD - Southwest District,Business,10/22/2014 05:27:49 PM,39.305242,-76.667005,21216,Rosemont,Southwestern,9,813,POINT (39.305242 -76.667005),,,
110,227 Broadway - Thames/Broadway,BPD - Broadway,Business,10/22/2014 05:27:46 PM,39.281841,-76.593125,21231,Fells Point,Southeastern,1,213,POINT (39.281841 -76.593125),,,
247,703 North Ave West - North/Thomas,BPD - North Ave West,Business,10/22/2014 05:27:47 PM,39.309431,-76.65818,21216,Coppin Heights/Ash-Co-East,Western,7,723,POINT (39.309431 -76.65818),,,
250,706 North Ave West - North/Moreland,BPD - North Ave West,Business,10/22/2014 05:27:47 PM,39.309508,-76.655994,21216,Coppin Heights/Ash-Co-East,Western,7,723,POINT (39.309508 -76.655994),,,
6,5 Downtown - Eutaw/Lombard,BPD - Downtown,Business,10/22/2014 05:27:45 PM,39.287528,-76.620854,21201,Downtown,Central,11,111,POINT (39.287528 -76.620854),,,
303,819 Park Heights - Park Heights/Hayward,BPD - Park Heights,Business,10/22/2014 05:27:48 PM,39.350004,-76.678873,21215,Pimlico Good Neighbors,Northwestern,5,633,POINT (39.350004 -76.678873),,,
130,319 Cherry Hill - Spelman/Denham,BPD - Cherry Hill,Business,10/22/2014 05:27:46 PM,39.245923,-76.628299,21225,Cherry Hill,Southern,10,922,POINT (39.245923 -76.628299),,,
140,329 Cherry Hill - Coppin/Bunche,BPD - Cherry Hill,Business,10/22/2014 05:27:46 PM,39.245411,-76.624343,21225,Cherry Hill,Southern,10,922,POINT (39.245411 -76.624343),,,
351,926 Southwest District - Edmondson/Denison,BPD - Southwest District,Business,10/22/2014 05:27:49 PM,39.294188,-76.674053,21229,Edgewood,Southwestern,8,844,POINT (39.294188 -76.674053),,,
528,2116 Gilmore - 1500 Presstman Ct,BPD - Gilmore,Business,10/22/2014 05:27:51 PM,39.305455,-76.643906,21217,Sandtown-Winchester,Western,7,742,POINT (39.305455 -76.643906),,,
276,732 North Ave West - Whitelock/Woodbrook,BPD - North Ave West,Business,10/22/2014 05:27:48 PM,39.310515,-76.64121,21217,Penn North,Western,7,733,POINT (39.310515 -76.64121),,,
369,1011 Tri-District - Pratt/Fulton,BPD - Tri-District,Business,10/22/2014 05:27:49 PM,39.285251,-76.645048,21223,Carrollton Ridge,Southern,9,934,POINT (39.285251 -76.645048),,,
81,80 Downtown - Eutaw/Lexington,BPD - Downtown,Business,10/22/2014 05:27:45 PM,39.291598,-76.621002,21201,Downtown,Central,11,111,POINT (39.291598 -76.621002),,,
201,526 Greenmount - Calvert/McAllister,BPD - Greenmount,Business,10/22/2014 05:27:47 PM,39.310577,-76.613631,21202,Greenmount West,Eastern,12,311,POINT (39.310577 -76.613631),,,
453,1908 Inner Harbor - Constellation,BPD - Inner Harbor,Business,10/22/2014 05:27:50 PM,39.285951,-76.611389,21202,Inner Harbor,Central,11,112,POINT (39.285951 -76.611389),,,
495,2008 McCulloh - 570 Preston St,BPD - McCulloh,Business,10/22/2014 05:27:50 PM,39.298553,-76.627313,21201,Upton,Central,11,123,POINT (39.298553 -76.627313),,,
413,1205 North Ave East - Washington/North,BPD - North Ave East,Business,10/22/2014 05:27:49 PM,39.312069,-76.591145,21213,Broadway East,Eastern,12,331,POINT (39.312069 -76.591145),,,
555,2210 Latrobe - 819 McKim St,BPD - Latrobe,Business,10/22/2014 05:27:51 PM,39.29935,-76.606076,21202,Oldtown,Eastern,12,312,POINT (39.29935 -76.606076),,,
97,214 Broadway - Gough/Regester,BPD - Broadway,Business,10/22/2014 05:27:46 PM,39.287696,-76.592432,21231,Fells Point,Southeastern,1,213,POINT (39.287696 -76.592432),,,
292,808 Park Heights - Reisterstown/St Ambrose,BPD - Park Heights,Business,10/22/2014 05:27:48 PM,39.340273,-76.671485,21215,Lucille Park,Northwestern,6,613,POINT (39.340273 -76.671485),,,
429,1310 Harford Rd - Harford/Alameda,BPD - Harford Rd,Business,10/22/2014 05:27:50 PM,39.320479,-76.59277,21218,Coldstream Homestead Montebello,Northeastern,14,411,POINT (39.320479 -76.59277),,,
407,1118 Pennsylvania Ave - Division/Mosher,BPD - Pennsylvania Ave,Business,10/22/2014 05:27:49 PM,39.302594,-76.632024,21217,Upton,Central,11,123,POINT (39.302594 -76.632024),,,
484,1985 Hollins Market - Hollins/Carrollton,BPD - Hollins Market,Business,10/22/2014 05:27:50 PM,39.287619,-76.63668,21223,Hollins Market,Southern,9,931,POINT (39.287619 -76.63668),,,
342,917 Southwest District - Ellicott Dwy/Dukeland,BPD - Southwest District,Business,10/22/2014 05:27:49 PM,39.302434,-76.663527,21216,Winchester,Southwestern,9,814,POINT (39.302434 -76.663527),,,
600,2406 PVG - 1124 Colvin St,BPD - PVG,Business,10/22/2014 05:27:51 PM,39.292946,-76.601831,21202,Pleasant View Gardens,Southeastern,12,211,POINT (39.292946 -76.601831),,,
442,1409 Belair Rd - Belair/Erdman,BPD - Belair Rd,Business,10/22/2014 05:27:50 PM,39.321773,-76.573811,21213,Belair-Edison,Northeastern,13,432,POINT (39.321773 -76.573811),,,
622,2506 Dept of Corrections - Fallsway/Eager,BPD - Dept of Corrections,Business,10/22/2014 05:27:52 PM,39.300916,-76.611038,21202,Penn-Fallsway,Eastern,12,312,POINT (39.300916 -76.611038),,,
551,2206 Latrobe - 864 McAleer Ct,BPD - Latrobe,Business,10/22/2014 05:27:51 PM,39.300042,-76.604741,21202,Oldtown,Eastern,12,312,POINT (39.300042 -76.604741),,,
479,1980 Hollins Market - Hollins-SW Corner,BPD - Hollins Market,Business,10/22/2014 05:27:50 PM,39.287529,-76.635958,21223,Hollins Market,Southern,9,931,POINT (39.287529 -76.635958),,,
135,324 Cherry Hill - Bridgeview/Spelman,BPD - Cherry Hill,Business,10/22/2014 05:27:46 PM,39.245169,-76.627357,21225,Cherry Hill,Southern,10,922,POINT (39.245169 -76.627357),,,
49,48 Downtown - Eutaw/Mulberry,BPD - Downtown,Business,10/22/2014 05:27:45 PM,39.293915,-76.621199,21201,Downtown,Central,11,111,POINT (39.293915 -76.621199),,,
17,16 Downtown - Hanover/Pratt,BPD - Downtown,Business,10/22/2014 05:27:45 PM,39.286452,-76.616191,21201,Downtown West,Central,11,113,POINT (39.286452 -76.616191),,,
167,356 Cherry Hill - Back of Comm Ctr,BPD - Cherry Hill,Business,10/22/2014 05:27:47 PM,39.248112,-76.630521,21225,Cherry Hill,Southern,10,922,POINT (39.248112 -76.630521),,,
206,531 Greenmount - Greenmount/Biddle,BPD - Greenmount,Business,10/22/2014 05:27:47 PM,39.303782,-76.60793,21202,Johnston Square,Eastern,12,311,POINT (39.303782 -76.60793),,,
70,69 Downtown - Gay/Water,BPD - Downtown,Business,10/22/2014 05:27:45 PM,39.288624,-76.608832,21202,Downtown,Central,11,111,POINT (39.288624 -76.608832),,,
64,63 Downtown - Holliday/Saratoga,BPD - Downtown,Business,10/22/2014 05:27:45 PM,39.292495,-76.610355,21202,Downtown,Central,11,111,POINT (39.292495 -76.610355),,,
184,509 Greenmount - Greenmount/25th,BPD - Greenmount,Business,10/22/2014 05:27:47 PM,39.318148,-76.609463,21218,Better Waverly,Northern,14,513,POINT (39.318148 -76.609463),,,
286,802 Park Heights - Reisterstown/Shirley,BPD - Park Heights,Business,10/22/2014 05:27:48 PM,39.333873,-76.664031,21215,Central Park Heights,Northwestern,6,614,POINT (39.333873 -76.664031),,,
458,1913 Inner Harbor - Pier 6 Pavillion,BPD - Inner Harbor,Business,10/22/2014 05:27:50 PM,39.283761,-76.60462,21202,Inner Harbor,Central,1,112,POINT (39.283761 -76.60462),,,
523,2111 Gilmore - 1679 Vincent Ct,BPD - Gilmore,Business,10/22/2014 05:27:51 PM,39.307471,-76.64361,21217,Sandtown-Winchester,Western,7,742,POINT (39.307471 -76.64361),,,
380,1022 Tri-District - Pulaski/McHenry,BPD - Tri-District,Business,10/22/2014 05:27:49 PM,39.284172,-76.649825,21223,Carrollton Ridge,Southern,9,934,POINT (39.284172 -76.649825),,,
634,2608 Midtown - Charles/Preston,BPD - Midtown,Business,10/22/2014 05:27:52 PM,39.304624,-76.61637,21201,Mid-Town Belvedere,Central,11,141,POINT (39.304624 -76.61637),,,
93,210 Broadway - Lombard/Washington,BPD - Broadway,Business,10/22/2014 05:27:46 PM,39.290573,-76.589106,21231,Washington Hill,Southeastern,13,212,POINT (39.290573 -76.589106),,,
115,304 Cherry Hill - Behind 2711 Berea Rd,BPD - Cherry Hill,Business,10/22/2014 05:27:46 PM,39.250272,-76.632756,21225,Cherry Hill,Southern,10,922,POINT (39.250272 -76.632756),,,
262,718 North Ave West - Payson/Ridgehill,BPD - North Ave West,Business,10/22/2014 05:27:48 PM,39.31158,-76.650011,21217,Mondawmin,Western,7,731,POINT (39.31158 -76.650011),,,
234,619 Monument - Mcelderry/Potomac,BPD - Monument,Business,10/22/2014 05:27:47 PM,39.298066,-76.575066,21205,Ellwood Park/Monument,Southeastern,13,224,POINT (39.298066 -76.575066),,,
332,907 Southwest District - Westwood Ave (Dead End),BPD - Southwest District,Business,10/22/2014 05:27:49 PM,39.308178,-76.66477,21216,Northwest Community Action,Southwestern,7,813,POINT (39.308178 -76.66477),,,
507,2020 McCulloh - 1100 Stoddart Ct,BPD - McCulloh,Business,10/22/2014 05:27:50 PM,39.300702,-76.626653,21201,Upton,Central,11,123,POINT (39.300702 -76.626653),,,
347,922 Southwest District - Poplar Grove/Rayner,BPD - Southwest District,Business,10/22/2014 05:27:49 PM,39.296185,-76.665097,21216,Franklintown Road,Southwestern,9,814,POINT (39.296185 -76.665097),,,
126,315 Cherry Hill - Rear of Community Ctr,BPD - Cherry Hill,Business,10/22/2014 05:27:46 PM,39.248153,-76.629757,21225,Cherry Hill,Southern,10,922,POINT (39.248153 -76.629757),,,
490,2003 McCulloh - 520 Hoffman St,BPD - McCulloh,Business,10/22/2014 05:27:50 PM,39.299569,-76.62782,21201,Upton,Central,11,123,POINT (39.299569 -76.62782),,,
365,1007 Tri-District - Gilmor/Ramsay,BPD - Tri-District,Business,10/22/2014 05:27:49 PM,39.283275,-76.642089,21223,New Southwest/Mount Clare,Southern,9,935,POINT (39.283275 -76.642089),,,
86,203 Broadway - Baltimore/Broadway,BPD - Broadway,Business,10/22/2014 05:27:46 PM,39.291542,-76.593944,21231,Washington Hill,Southeastern,12,212,POINT (39.291542 -76.593944),,,
318,834 Park Heights - Park Heights/Menlo,BPD - Park Heights,Business,10/22/2014 05:27:48 PM,39.356444,-76.689695,21215,Glen,Northwestern,5,632,POINT (39.356444 -76.689695),,,
566,2221 Latrobe - 1001 McAleer Ct,BPD - Latrobe,Business,10/22/2014 05:27:51 PM,39.299716,-76.603547,21202,Oldtown,Eastern,12,312,POINT (39.299716 -76.603547),,,
222,607 Monument - Monument/Montford,BPD - Monument,Business,10/22/2014 05:27:47 PM,39.298807,-76.583721,21205,Milton-Montford,Eastern,13,323,POINT (39.298807 -76.583721),,,
584,2311 Perkins - 299 Herring Ct,BPD - Perkins,Business,10/22/2014 05:27:51 PM,39.287665,-76.594826,21231,Perkins Homes,Southeastern,12,211,POINT (39.287665 -76.594826),,,
513,2101 Gilmore - Behind 1638 Bruce Ct,BPD - Gilmore,Business,10/22/2014 05:27:50 PM,39.307301,-76.644213,21217,Sandtown-Winchester,Western,7,742,POINT (39.307301 -76.644213),,,
229,614 Monument - Mcelderry/Belnord,BPD - Monument,Business,10/22/2014 05:27:47 PM,39.297951,-76.578631,21205,McElderry Park,Southeastern,13,221,POINT (39.297951 -76.578631),,,
618,2502 Dept of Corrections - Madison/Constitution,BPD - Dept of Corrections,Business,10/22/2014 05:27:52 PM,39.298897,-76.609951,21202,Penn-Fallsway,Eastern,12,312,POINT (39.298897 -76.609951),,,
518,2106 Gilmore - 1679 Bakbury Ct,BPD - Gilmore,Business,10/22/2014 05:27:50 PM,39.307862,-76.645106,21217,Sandtown-Winchester,Western,7,742,POINT (39.307862 -76.645106),,,
473,1962 Avenue Market - Avenue Market Middle,BPD - Avenue Market,Business,10/22/2014 05:27:50 PM,39.303537,-76.635647,21217,Upton,Central,11,123,POINT (39.303537 -76.635647),,,
375,1017 Tri-District - Monroe/Wilhelm,BPD - Tri-District,Business,10/22/2014 05:27:49 PM,39.283694,-76.646686,21223,Carrollton Ridge,Southern,9,934,POINT (39.283694 -76.646686),,,
239,624 Monument - Mcelderry/Robinson,BPD - Monument,Business,10/22/2014 05:27:47 PM,39.298041,-76.573087,21205,Ellwood Park/Monument,Southeastern,13,224,POINT (39.298041 -76.573087),,,
103,220 Broadway - Fleet/Broadway,BPD - Broadway,Business,10/22/2014 05:27:46 PM,39.284604,-76.593566,21231,Fells Point,Southeastern,1,213,POINT (39.284604 -76.593566),,,
